{"type":"FeatureCollection","features":[{"type":"Feature","properties":{"name":"Caldas","code":"CO-CAL","source":"COL"},"geometry":{"type":"Polygon","coordinates":[[[-75.8674,5.48817],[-75.8604,5.37251],[-75.72594,5.39747],[-75.63517,5.31566],[-75.69247,5.25574],[-75.82349,5.2703],[-75.80246,5.20157],[-75.83623,5.11546],[-75.8891,5.12922],[-75.91345,5.08436],[-75.89559,4.96257],[-75.81511,4.91915],[-75.74776,5.04582],[-75.69928,4.94436],[-75.63909,4.97613],[-75.6176,4.93202],[-75.48093,4.91698],[-75.42749,4.81767],[-75.37526,4.80385],[-75.32167,4.87195],[-75.34289,5.08216],[-75.28751,5.13828],[-75.11586,5.16004],[-75.00984,5.29373],[-74.82708,5.31897],[-74.73386,5.2863],[-74.65168,5.44369],[-74.67413,5.51206],[-74.64038,5.53926],[-74.62335,5.69653],[-74.68138,5.77904],[-74.77365,5.68863],[-74.86486,5.74778],[-74.99323,5.71542],[-75.09353,5.65578],[-75.09248,5.5839],[-75.27628,5.41863],[-75.34083,5.60343],[-75.38307,5.62177],[-75.37636,5.67377],[-75.42731,5.69625],[-75.47796,5.6635],[-75.59904,5.73863],[-75.57021,5.52096],[-75.68591,5.52505],[-75.73071,5.56355],[-75.86454,5.49397],[-75.8674,5.48817]]]}},{"type":"Feature","properties":{"name":"Amazonas","code":"CO-AMA","source":"COL"},"geometry":{"type":"Polygon","coordinates":[[[-74.38759,-0.55933],[-74.33788,-0.6775],[-74.37015,-0.73724],[-74.31573,-0.75423],[-74.31251,-0.79335],[-74.27907,-0.77901],[-74.27947,-0.82819],[-74.24339,-0.82076],[-74.27026,-0.88063],[-74.32046,-0.88073],[-74.27933,-0.89906],[-74.27258,-0.9788],[-74.06494,-1.05357],[-74.01807,-1.00568],[-74.00606,-1.09888],[-73.91207,-1.11646],[-73.86135,-1.22932],[-73.77019,-1.26158],[-73.74393,-1.20048],[-73.72694,-1.24837],[-73.6194,-1.26378],[-73.61106,-1.31873],[-73.56874,-1.32174],[-73.55238,-1.41693],[-73.57989,-1.42823],[-73.49087,-1.48362],[-73.49033,-1.57081],[-73.45727,-1.57535],[-73.5386,-1.70065],[-73.31512,-1.82751],[-73.29994,-1.77748],[-73.23547,-1.80263],[-73.21779,-1.74859],[-73.14625,-1.80541],[-73.15239,-1.85925],[-73.10827,-1.88585],[-73.11359,-2.07182],[-73.0693,-2.09326],[-73.16809,-2.18625],[-73.16528,-2.23675],[-73.05814,-2.36102],[-73.03274,-2.31368],[-73.00287,-2.36033],[-72.95257,-2.33701],[-72.93093,-2.45719],[-72.77711,-2.38531],[-72.7445,-2.42767],[-72.71166,-2.38641],[-72.68117,-2.45197],[-72.63519,-2.35849],[-72.44855,-2.43367],[-72.40804,-2.41415],[-72.36856,-2.49078],[-72.17138,-2.42648],[-72.1573,-2.47994],[-72.04498,-2.33574],[-71.92241,-2.38067],[-71.93932,-2.31611],[-71.88709,-2.31415],[-71.82894,-2.18738],[-71.79655,-2.20483],[-71.73445,-2.14098],[-71.72094,-2.23095],[-71.65236,-2.19991],[-71.52021,-2.24912],[-71.49638,-2.35595],[-71.4951,-2.27621],[-71.45274,-2.27999],[-71.39322,-2.4105],[-71.29635,-2.33627],[-71.28091,-2.38942],[-71.23197,-2.33679],[-71.1762,-2.38222],[-71.16158,-2.33291],[-71.12882,-2.33882],[-71.13269,-2.28588],[-71.04608,-2.2649],[-70.99389,-2.30658],[-71.00084,-2.2102],[-70.94154,-2.25529],[-70.87751,-2.2215],[-70.83249,-2.29466],[-70.66339,-2.35496],[-70.67733,-2.40539],[-70.62717,-2.39576],[-70.63169,-2.47466],[-70.5577,-2.47209],[-70.59776,-2.42174],[-70.5704,-2.41841],[-70.50861,-2.47638],[-70.47192,-2.45407],[-70.43297,-2.52411],[-70.30294,-2.5015],[-70.35351,-2.56808],[-70.24673,-2.55206],[-70.21909,-2.64534],[-70.16538,-2.63655],[-70.13554,-2.70376],[-70.0809,-2.65508],[-70.07407,-2.79037],[-70.71319,-3.79652],[-70.61645,-3.84348],[-70.57749,-3.81657],[-70.51487,-3.88075],[-70.35475,-3.80206],[-70.284,-3.82376],[-69.93329,-4.21969],[-69.45659,-1.49119],[-69.3973,-1.36508],[-69.42475,-1.07732],[-69.46893,-1.08863],[-69.47837,-1.2115],[-69.56351,-1.19375],[-69.59392,-1.14634],[-69.66149,-1.2272],[-69.68097,-1.12167],[-69.64889,-1.11833],[-69.70014,-1.05178],[-69.77071,-1.03583],[-69.73367,-1.08409],[-69.75852,-1.0974],[-69.83451,-1.02775],[-69.9576,-1.09494],[-69.95448,-0.99518],[-69.90344,-0.96899],[-70.00053,-0.97429],[-70.01683,-0.93564],[-70.03416,-0.97846],[-70.0829,-0.94559],[-70.12634,-0.97628],[-70.13409,-1.01643],[-70.07839,-1.03581],[-70.16795,-1.11288],[-70.2278,-1.04685],[-70.19683,-0.98504],[-70.25339,-1.01889],[-70.30726,-0.96583],[-70.22128,-0.88321],[-70.29624,-0.79334],[-70.24882,-0.73692],[-70.26405,-0.5821],[-70.32662,-0.56373],[-70.24498,-0.46869],[-70.20265,-0.47203],[-70.21157,-0.44014],[-70.28891,-0.41228],[-70.36556,-0.45371],[-70.32191,-0.46976],[-70.33453,-0.49843],[-70.39831,-0.46238],[-70.4572,-0.49484],[-70.45391,-0.43698],[-70.51974,-0.35664],[-70.58072,-0.39149],[-70.62698,-0.322],[-70.67615,-0.3514],[-70.73558,-0.28712],[-70.82647,-0.36438],[-70.88364,-0.21333],[-70.947,-0.15375],[-70.89175,-0.11613],[-70.92745,-0.05046],[-70.98199,-0.0035],[-71.02695,-0.04854],[-71.03778,-0.00508],[-71.09631,-0.00694],[-71.10391,0.02688],[-71.13202,0.00368],[-71.18662,0.09817],[-71.22672,0.05496],[-71.3227,0.11176],[-71.39768,0.03078],[-71.61813,-0.01622],[-71.72034,-0.10118],[-71.71731,-0.22509],[-71.74998,-0.25147],[-72.03841,-0.26746],[-72.23304,-0.49113],[-72.24191,-0.61097],[-72.34904,-0.64009],[-72.43358,-0.56525],[-72.55638,-0.70656],[-72.75325,-0.55603],[-72.9069,-0.61763],[-73.02486,-0.52879],[-73.0753,-0.62364],[-73.20841,-0.62552],[-73.32974,-0.50664],[-73.48751,-0.52902],[-73.53401,-0.48827],[-73.56755,-0.51819],[-73.58259,-0.44753],[-73.65144,-0.45786],[-73.6403,-0.41766],[-73.71662,-0.3807],[-74.38102,-0.55139],[-74.38759,-0.55933]]]}},{"type":"Feature","properties":{"name":"Meta","code":"CO-MET","source":"COL"},"geometry":{"type":"Polygon","coordinates":[[[-74.93393,2.90668],[-74.79473,2.93319],[-74.76572,2.87684],[-74.67692,2.89013],[-74.61739,2.74827],[-74.63844,2.70437],[-74.59026,2.65975],[-74.68577,2.54582],[-74.65077,2.49551],[-74.73267,2.273],[-74.67663,2.28475],[-74.65742,2.21211],[-74.59009,2.19549],[-74.60947,2.0708],[-74.56464,1.84921],[-74.27047,1.75353],[-74.21536,1.76666],[-74.20591,1.7147],[-74.1123,1.69614],[-74.09051,1.64247],[-73.99957,1.65789],[-73.98143,1.60178],[-73.85828,1.6583],[-73.65877,1.61452],[-73.65623,2.295],[-73.61617,2.37803],[-73.57168,2.35513],[-73.52774,2.38761],[-73.51113,2.33327],[-73.44686,2.34234],[-73.44182,2.38764],[-73.4375,2.32701],[-73.41441,2.35636],[-73.37763,2.32614],[-73.35662,2.36884],[-73.35537,2.32446],[-73.33158,2.36051],[-73.24009,2.34895],[-73.26798,2.37999],[-73.21667,2.40565],[-73.16208,2.36524],[-73.1242,2.41214],[-73.10926,2.381],[-72.96322,2.47984],[-72.9337,2.46458],[-72.95481,2.51706],[-72.82118,2.61181],[-72.74538,2.56893],[-72.68273,2.62269],[-72.65102,2.5717],[-72.61527,2.62578],[-72.58854,2.58285],[-72.53501,2.70258],[-72.47031,2.68896],[-72.46654,2.73389],[-72.40588,2.72548],[-72.32022,2.79921],[-72.27593,2.77692],[-72.25825,2.82407],[-72.19164,2.77246],[-72.20395,2.86318],[-72.13514,2.88854],[-72.0792,2.82218],[-71.98273,2.80092],[-71.82892,2.83659],[-71.85124,2.87036],[-71.8236,2.87842],[-71.78051,2.81721],[-71.76335,2.89659],[-71.70103,2.83899],[-71.65949,2.86985],[-71.64679,2.81841],[-71.57492,2.8452],[-71.58215,2.873],[-71.47031,2.85268],[-71.4642,2.89861],[-71.39356,2.84649],[-71.35937,2.89012],[-71.34945,2.85797],[-71.31863,2.92484],[-71.28782,2.86817],[-71.18491,2.90418],[-71.07741,2.88214],[-71.0775,4.92464],[-71.21382,4.81563],[-71.57627,4.67563],[-71.73256,4.5756],[-71.80835,4.58274],[-71.98642,4.38674],[-72.23705,4.43521],[-72.40493,4.31905],[-72.42907,4.355],[-72.47064,4.31733],[-72.53006,4.34443],[-72.57037,4.30428],[-72.74172,4.30884],[-73.03746,4.66474],[-73.05083,4.73721],[-73.1365,4.21515],[-73.351,4.32114],[-73.46791,4.27838],[-73.5433,4.30353],[-73.60413,4.46152],[-73.56727,4.52525],[-73.66123,4.54503],[-73.8116,4.40824],[-73.74178,4.20022],[-74.02414,4.10191],[-74.12847,4.00051],[-74.21803,4.0082],[-74.31896,3.87883],[-74.29666,3.81915],[-74.39254,3.77228],[-74.63442,3.46913],[-74.6155,3.32609],[-74.67024,3.20074],[-74.92586,2.91471],[-74.93393,2.90668]]]}},{"type":"Feature","properties":{"name":"Cundinamarca","code":"CO-CUN","source":"COL"},"geometry":{"type":"Polygon","coordinates":[[[-74.73386,5.2863],[-74.7432,5.00715],[-74.70718,4.98145],[-74.75043,4.95435],[-74.74395,4.79003],[-74.81979,4.72434],[-74.7865,4.50586],[-74.89067,4.29032],[-74.77918,4.28371],[-74.65471,4.19835],[-74.58863,4.26737],[-74.5205,4.2396],[-74.47549,4.11606],[-74.52834,4.04428],[-74.53943,3.84485],[-74.45107,3.81043],[-74.45157,3.72435],[-74.36511,3.89691],[-74.32867,4.12975],[-74.25657,4.08905],[-74.20374,4.24153],[-74.21789,4.3783],[-74.15998,4.50782],[-74.2215,4.64368],[-74.15851,4.66268],[-74.17691,4.703],[-74.07543,4.83701],[-73.99973,4.8059],[-74.03303,4.63601],[-73.99742,4.6021],[-74.11239,4.43258],[-74.09812,4.35056],[-74.15127,4.25435],[-74.10655,4.13797],[-74.14384,4.00316],[-73.93338,4.14833],[-73.74304,4.19887],[-73.8116,4.40824],[-73.61988,4.56008],[-73.56727,4.52525],[-73.60413,4.46152],[-73.5433,4.30353],[-73.46791,4.27838],[-73.351,4.32114],[-73.1365,4.21515],[-73.05083,4.73721],[-73.10508,4.66053],[-73.22078,4.67753],[-73.22253,4.7313],[-73.30519,4.73071],[-73.40211,4.87865],[-73.53785,4.89538],[-73.47787,5.14754],[-73.53317,5.28072],[-73.60243,5.31808],[-73.59283,5.39892],[-73.77102,5.48853],[-73.80472,5.57358],[-73.90849,5.52625],[-73.89929,5.44947],[-74.02258,5.36502],[-74.09688,5.46992],[-74.12508,5.43279],[-74.20144,5.49704],[-74.25416,5.48664],[-74.24372,5.54517],[-74.3148,5.62307],[-74.27732,5.69474],[-74.33465,5.83666],[-74.43277,5.76018],[-74.51079,5.79437],[-74.65687,5.75371],[-74.62335,5.69653],[-74.64038,5.53926],[-74.67413,5.51206],[-74.65168,5.44369],[-74.73326,5.29439],[-74.73386,5.2863]]]}},{"type":"Feature","properties":{"name":"Tolima","code":"CO-TOL","source":"COL"},"geometry":{"type":"Polygon","coordinates":[[[-75.37526,4.80385],[-75.42124,4.61037],[-75.51462,4.5557],[-75.57788,4.45365],[-75.59705,4.27933],[-75.74716,4.09468],[-75.73857,4.05358],[-75.99372,3.63752],[-75.98514,3.56011],[-76.05943,3.35381],[-76.03943,3.2508],[-76.10853,3.10419],[-76.02246,3.00343],[-76.0312,2.94061],[-75.98876,2.98237],[-75.95387,2.91735],[-75.85699,2.87131],[-75.62198,3.00883],[-75.57706,3.22395],[-75.47844,3.36105],[-75.44192,3.34708],[-75.31996,3.41956],[-75.25295,3.36656],[-75.22838,3.41458],[-75.18399,3.38181],[-75.14763,3.43549],[-75.06096,3.43195],[-75.03388,3.38594],[-75.07266,3.29606],[-74.90781,3.29002],[-74.76505,3.4426],[-74.78235,3.49953],[-74.72768,3.55421],[-74.73859,3.58976],[-74.53695,3.81846],[-74.52834,4.04428],[-74.47549,4.11606],[-74.5205,4.2396],[-74.58863,4.26737],[-74.65471,4.19835],[-74.77918,4.28371],[-74.89067,4.29032],[-74.7865,4.50586],[-74.81979,4.72434],[-74.74395,4.79003],[-74.75043,4.95435],[-74.70718,4.98145],[-74.7432,5.00715],[-74.73386,5.2863],[-74.82708,5.31897],[-75.00984,5.29373],[-75.11586,5.16004],[-75.28751,5.13828],[-75.34289,5.08216],[-75.32167,4.87195],[-75.37154,4.80707],[-75.37526,4.80385]]]}},{"type":"Feature","properties":{"name":"Antioquia","code":"CO-ANT","source":"COL"},"geometry":{"type":"MultiPolygon","coordinates":[[[[-74.65755,5.77526],[-74.63662,5.87308],[-74.58629,5.89863],[-74.61093,5.97122],[-74.56105,6.00218],[-74.60654,6.1421],[-74.5391,6.26614],[-74.36794,6.40872],[-74.40479,6.46938],[-74.40028,6.59066],[-74.17024,6.72869],[-73.88377,7.00374],[-73.93876,7.174],[-73.9134,7.2978],[-74.24435,7.00424],[-74.35457,7.01089],[-74.4094,7.20215],[-74.40084,7.3392],[-74.34166,7.42577],[-74.3717,7.47883],[-74.41208,7.46105],[-74.412,7.39067],[-74.48891,7.34317],[-74.59816,7.46091],[-74.56217,7.64493],[-74.49107,7.66229],[-74.46148,7.72391],[-74.52479,7.7818],[-74.52086,7.90395],[-74.60312,8.03705],[-74.81198,8.14367],[-74.825,8.19917],[-74.87554,8.19792],[-74.93119,8.07445],[-75.22418,8.06002],[-75.33619,7.9498],[-75.35079,7.8835],[-75.4542,7.83359],[-75.60258,7.58213],[-75.7589,7.60518],[-75.8409,7.36323],[-76.38393,7.39229],[-76.50994,7.58393],[-76.4954,7.75039],[-76.4198,7.91034],[-76.41605,8.07063],[-76.321,8.27648],[-76.19118,8.39245],[-76.22281,8.57326],[-76.28338,8.64866],[-76.34138,8.64592],[-76.41212,8.74783],[-76.38454,8.7909],[-76.41363,8.88974],[-76.51459,8.78039],[-76.62985,8.73132],[-76.64908,8.67122],[-76.8842,8.62216],[-76.93793,8.5449],[-76.82589,8.49671],[-76.75934,8.39774],[-76.7265,7.98155],[-76.77329,7.90871],[-76.92291,7.9182],[-76.92411,8.02722],[-76.84174,8.01861],[-76.87535,8.05212],[-76.82977,8.0487],[-76.87256,8.06941],[-76.82947,8.09063],[-76.85291,8.12151],[-76.80676,8.12859],[-76.89293,8.13226],[-76.93134,8.09134],[-76.95046,8.14484],[-76.91114,8.17919],[-76.92792,8.20764],[-76.95682,8.18455],[-76.94278,8.24861],[-76.98,8.2548],[-76.9546,8.04193],[-76.99434,8.02358],[-77.0311,7.8802],[-77.12633,7.83084],[-77.12289,7.7885],[-76.82943,7.5213],[-76.71713,7.36761],[-76.53275,7.25802],[-76.48291,7.13327],[-76.57193,6.97833],[-76.6761,7.02793],[-76.83464,6.99927],[-76.79113,6.86776],[-76.9731,6.80607],[-76.93333,6.71125],[-76.96085,6.67668],[-76.85966,6.62312],[-76.89286,6.56757],[-76.76719,6.47772],[-76.78996,6.32179],[-76.71803,6.17224],[-76.41987,6.16573],[-76.23925,6.20973],[-76.16534,6.00704],[-76.11173,6.02088],[-76.06666,5.978],[-76.08695,5.68864],[-76.00515,5.62192],[-75.98339,5.5194],[-75.90553,5.48039],[-75.73071,5.56355],[-75.68591,5.52505],[-75.57021,5.52096],[-75.59904,5.73863],[-75.47796,5.6635],[-75.42731,5.69625],[-75.37636,5.67377],[-75.38307,5.62177],[-75.34083,5.60343],[-75.27628,5.41863],[-75.09248,5.5839],[-75.09353,5.65578],[-74.99323,5.71542],[-74.86486,5.74778],[-74.77365,5.68863],[-74.71245,5.77464],[-74.66887,5.76945],[-74.65755,5.77526]]],[[[-76.92144,8.1958],[-76.92768,8.19164],[-76.93239,8.18138],[-76.92144,8.1958]]]]}},{"type":"Feature","properties":{"name":"Atlántico","code":"CO-ATL","source":"COL"},"geometry":{"type":"Polygon","coordinates":[[[-75.22164,10.79722],[-75.26714,10.68785],[-75.22367,10.62777],[-75.2513,10.48462],[-75.17007,10.47397],[-75.13083,10.39787],[-75.07332,10.4086],[-74.90781,10.25318],[-74.72494,10.60385],[-74.74078,10.83725],[-74.71336,10.88286],[-74.76484,10.99617],[-74.85486,11.10648],[-74.85273,11.05367],[-74.92131,11.04554],[-75.04943,10.94712],[-75.0474,10.89833],[-75.2161,10.80284],[-75.22164,10.79722]]]}},{"type":"Feature","properties":{"name":"Bolívar","code":"CO-BOL","source":"COL"},"geometry":{"type":"MultiPolygon","coordinates":[[[[-76.19049,9.38424],[-76.18734,9.38279],[-76.18567,9.3799],[-76.19049,9.38424]]],[[[-75.85753,9.7935],[-75.82642,9.79411],[-75.85651,9.79259],[-75.85753,9.7935]]],[[[-73.9134,7.2978],[-73.91562,7.48742],[-73.7987,7.6517],[-73.86747,8.04084],[-73.77504,8.14342],[-73.75014,8.27098],[-73.74947,8.46494],[-73.8196,8.64805],[-73.79522,8.81114],[-73.86563,8.88498],[-73.89118,8.98115],[-73.97969,8.98586],[-74.03543,9.04479],[-74.13696,9.029],[-74.11859,9.04879],[-74.24744,9.16438],[-74.29813,9.15986],[-74.2967,9.20288],[-74.40253,9.21371],[-74.43373,9.27325],[-74.517,9.23476],[-74.67141,9.41331],[-74.76494,9.46505],[-74.80584,9.44751],[-74.77216,9.60556],[-74.87305,9.93488],[-74.78987,9.97179],[-74.78613,10.00778],[-74.85859,10.09576],[-74.9429,10.12163],[-74.90781,10.25318],[-74.96354,10.32485],[-75.07332,10.4086],[-75.13083,10.39787],[-75.17007,10.47397],[-75.2513,10.48462],[-75.22367,10.62777],[-75.26714,10.68785],[-75.22164,10.79722],[-75.26172,10.80063],[-75.28204,10.70864],[-75.39432,10.68262],[-75.51385,10.56991],[-75.49138,10.48827],[-75.56637,10.39663],[-75.54903,10.4223],[-75.5064,10.38417],[-75.50317,10.30133],[-75.56521,10.26113],[-75.58672,10.29802],[-75.62221,10.25135],[-75.58639,10.22563],[-75.70456,10.14143],[-75.52255,10.23682],[-75.56516,10.12247],[-75.49869,10.14849],[-75.54477,10.04605],[-75.48328,10.03706],[-75.48091,9.90554],[-75.3683,9.87005],[-75.34286,9.91052],[-75.32318,9.87648],[-75.37307,9.62956],[-75.32965,9.6125],[-75.27646,9.68626],[-75.16463,9.64628],[-75.18064,9.6018],[-75.01496,9.53003],[-75.02881,9.45749],[-74.88221,9.43376],[-74.94767,9.34451],[-74.91645,9.19544],[-74.82058,9.05505],[-74.63916,8.97762],[-74.57075,8.85426],[-74.55819,8.80256],[-74.60856,8.72798],[-74.53946,8.43483],[-74.56106,8.39007],[-74.60981,8.4033],[-74.65258,8.28077],[-74.74874,8.30728],[-74.8341,8.21664],[-74.81198,8.14367],[-74.60312,8.03705],[-74.53855,7.94731],[-74.52479,7.7818],[-74.46148,7.72391],[-74.49107,7.66229],[-74.56217,7.64493],[-74.59816,7.46091],[-74.48891,7.34317],[-74.41792,7.38205],[-74.42188,7.44303],[-74.3717,7.47883],[-74.33902,7.41736],[-74.40084,7.3392],[-74.40736,7.19162],[-74.35457,7.01089],[-74.24435,7.00424],[-73.9134,7.2978]]],[[[-75.74905,10.18255],[-75.74749,10.17262],[-75.74435,10.17083],[-75.74905,10.18255]]],[[[-75.59361,10.34762],[-75.58166,10.31827],[-75.53737,10.35704],[-75.57552,10.38152],[-75.59045,10.35229],[-75.59361,10.34762]]]]}},{"type":"Feature","properties":{"name":"Cesar","code":"CO-CES","source":"COL"},"geometry":{"type":"Polygon","coordinates":[[[-73.77504,8.14342],[-73.72309,7.96963],[-73.67215,7.92836],[-73.75123,7.82452],[-73.75293,7.75064],[-73.58751,7.74149],[-73.48989,7.6764],[-73.43178,7.7011],[-73.35086,7.79529],[-73.35054,7.89368],[-73.27611,7.94499],[-73.30933,8.0157],[-73.36624,8.01272],[-73.37714,8.10556],[-73.4355,8.14696],[-73.34962,8.41405],[-73.4141,8.45976],[-73.39314,8.38292],[-73.45605,8.34548],[-73.52682,8.38304],[-73.47536,8.46818],[-73.57803,8.50003],[-73.5172,8.52733],[-73.52157,8.65771],[-73.41414,8.76653],[-73.4485,8.87074],[-73.41107,9.15473],[-73.36829,9.16144],[-73.14428,9.54298],[-73.08519,9.55628],[-73.05482,9.67826],[-72.94544,9.83763],[-72.99904,9.92387],[-72.91163,10.11272],[-72.88583,10.384],[-72.89457,10.43381],[-73.14459,10.39833],[-73.18057,10.46558],[-73.09994,10.54985],[-73.07661,10.63731],[-73.16098,10.71057],[-73.27748,10.72547],[-73.25202,10.81394],[-73.28985,10.86245],[-73.60182,10.83526],[-73.63799,10.78861],[-73.54206,10.75495],[-73.61696,10.645],[-73.61299,10.56511],[-73.56125,10.50861],[-73.64599,10.4983],[-73.65138,10.45968],[-73.70287,10.46331],[-73.77826,10.39575],[-73.93206,10.36561],[-74.04088,10.21982],[-74.08438,10.0732],[-73.84255,9.79681],[-73.80976,9.69127],[-73.80499,9.64172],[-74.05884,9.59014],[-74.13981,9.49554],[-73.97622,9.39127],[-73.95804,9.18687],[-73.86482,9.18153],[-73.87533,9.13054],[-73.79802,9.0583],[-73.86955,8.91711],[-73.79081,8.79385],[-73.8196,8.64805],[-73.74947,8.46494],[-73.7715,8.15149],[-73.77504,8.14342]]]}},{"type":"Feature","properties":{"name":"Magdalena","code":"CO-MAG","source":"COL"},"geometry":{"type":"Polygon","coordinates":[[[-74.90781,10.25318],[-74.9429,10.12163],[-74.85859,10.09576],[-74.78613,10.00778],[-74.78987,9.97179],[-74.87305,9.93488],[-74.77216,9.60556],[-74.80584,9.44751],[-74.76494,9.46505],[-74.67141,9.41331],[-74.517,9.23476],[-74.43373,9.27325],[-74.40253,9.21371],[-74.2967,9.20288],[-74.29813,9.15986],[-74.24744,9.16438],[-74.11859,9.04879],[-74.13696,9.029],[-74.03543,9.04479],[-73.97969,8.98586],[-73.89118,8.98115],[-73.86955,8.91711],[-73.79802,9.0583],[-73.87533,9.13054],[-73.86482,9.18153],[-73.95804,9.18687],[-73.97622,9.39127],[-74.13981,9.49554],[-74.05884,9.59014],[-73.80499,9.64172],[-73.80976,9.69127],[-73.84255,9.79681],[-74.08438,10.0732],[-74.04088,10.21982],[-73.93206,10.36561],[-73.77826,10.39575],[-73.70287,10.46331],[-73.65138,10.45968],[-73.64599,10.4983],[-73.56125,10.50861],[-73.61299,10.56511],[-73.61696,10.645],[-73.54206,10.75495],[-73.63799,10.78861],[-73.60125,10.84086],[-73.66464,10.98982],[-73.65348,11.13745],[-73.58991,11.1774],[-73.5647,11.25521],[-73.78918,11.25616],[-73.9794,11.34003],[-74.14477,11.33682],[-74.24166,11.22086],[-74.21393,11.07186],[-74.34766,10.97671],[-74.54434,10.99336],[-74.85306,11.10656],[-74.71509,10.89804],[-74.72494,10.60385],[-74.89794,10.28845],[-74.90781,10.25318]]]}},{"type":"Feature","properties":{"name":"Sucre","code":"CO-SUC","source":"COL"},"geometry":{"type":"Polygon","coordinates":[[[-75.56516,10.12247],[-75.62334,9.80562],[-75.70378,9.69931],[-75.61137,9.69315],[-75.57259,9.57011],[-75.62491,9.44141],[-75.6963,9.41184],[-75.71177,9.35945],[-75.62555,9.35254],[-75.5445,9.25867],[-75.45816,9.25723],[-75.46873,9.1937],[-75.42508,9.13825],[-75.38149,9.15014],[-75.29545,9.06788],[-75.2083,9.04751],[-75.23188,9.0219],[-75.17484,8.96349],[-75.20479,8.96753],[-75.20385,8.9173],[-75.37397,8.85742],[-75.36908,8.79211],[-75.31575,8.75024],[-75.34725,8.66926],[-75.31168,8.48544],[-75.18354,8.39784],[-74.93393,8.49063],[-74.80155,8.35722],[-74.79436,8.28052],[-74.74523,8.30811],[-74.65258,8.28077],[-74.60981,8.4033],[-74.56106,8.39007],[-74.5332,8.46493],[-74.60856,8.72798],[-74.55819,8.80256],[-74.57075,8.85426],[-74.63916,8.97762],[-74.82058,9.05505],[-74.91645,9.19544],[-74.94767,9.34451],[-74.88221,9.43376],[-75.02881,9.45749],[-75.01496,9.53003],[-75.18064,9.6018],[-75.16463,9.64628],[-75.27646,9.68626],[-75.32965,9.6125],[-75.37307,9.62956],[-75.32318,9.87648],[-75.34286,9.91052],[-75.3683,9.87005],[-75.48091,9.90554],[-75.48328,10.03706],[-75.54477,10.04605],[-75.49869,10.14849],[-75.56516,10.12247]]]}},{"type":"Feature","properties":{"name":"Córdoba","code":"CO-COR","source":"COL"},"geometry":{"type":"Polygon","coordinates":[[[-74.825,8.19917],[-74.78514,8.27604],[-74.80155,8.35722],[-74.93393,8.49063],[-75.18354,8.39784],[-75.31168,8.48544],[-75.34725,8.66926],[-75.31575,8.75024],[-75.36908,8.79211],[-75.37397,8.85742],[-75.20385,8.9173],[-75.20479,8.96753],[-75.17484,8.96349],[-75.23188,9.0219],[-75.2083,9.04751],[-75.29545,9.06788],[-75.38149,9.15014],[-75.42508,9.13825],[-75.46873,9.1937],[-75.45816,9.25723],[-75.5445,9.25867],[-75.62555,9.35254],[-75.71177,9.35945],[-75.6963,9.41184],[-75.8284,9.3936],[-75.7941,9.42868],[-75.9478,9.44335],[-75.97016,9.38214],[-76.08202,9.33627],[-76.107,9.26561],[-76.17084,9.22948],[-76.18717,9.11856],[-76.26523,8.9972],[-76.41363,8.88974],[-76.38454,8.7909],[-76.41645,8.75533],[-76.34138,8.64592],[-76.28338,8.64866],[-76.22281,8.57326],[-76.1902,8.40024],[-76.30192,8.31536],[-76.41605,8.07063],[-76.50255,7.56042],[-76.38393,7.39229],[-75.8409,7.36323],[-75.7589,7.60518],[-75.60258,7.58213],[-75.4542,7.83359],[-75.35079,7.8835],[-75.33619,7.9498],[-75.22418,8.06002],[-74.93119,8.07445],[-74.87179,8.19976],[-74.825,8.19917]]]}},{"type":"Feature","properties":{"name":"La Guajira","code":"CO-LAG","source":"COL"},"geometry":{"type":"Polygon","coordinates":[[[-72.89457,10.43381],[-72.73511,10.65146],[-72.64909,10.87936],[-72.55377,10.9402],[-72.49764,11.08589],[-72.34931,11.15137],[-72.24942,11.14019],[-71.97136,11.64627],[-71.37841,11.81213],[-71.29018,11.91324],[-71.32818,11.92166],[-71.28216,11.90782],[-71.13613,12.00271],[-71.11533,12.08596],[-71.22772,12.29992],[-71.52468,12.43635],[-71.71868,12.43603],[-71.73536,12.40903],[-71.68445,12.4449],[-71.69918,12.41705],[-71.62662,12.40878],[-71.70141,12.35876],[-71.72373,12.41036],[-71.80386,12.30529],[-71.83975,12.33949],[-71.80826,12.37014],[-71.86005,12.35612],[-71.9554,12.27312],[-71.89352,12.27672],[-71.86166,12.21669],[-71.92938,12.1504],[-71.98583,12.14868],[-72.00097,12.18648],[-71.9613,12.2577],[-72.17887,12.21665],[-72.13868,12.10433],[-72.22814,11.88684],[-72.76972,11.67841],[-73.27743,11.28508],[-73.56762,11.25824],[-73.58991,11.1774],[-73.65348,11.13745],[-73.66464,10.98982],[-73.60182,10.83526],[-73.27949,10.85697],[-73.25134,10.80371],[-73.27748,10.72547],[-73.16098,10.71057],[-73.07661,10.63731],[-73.09994,10.54985],[-73.18057,10.46558],[-73.14459,10.39833],[-72.90797,10.43446],[-72.89457,10.43381]]]}},{"type":"Feature","properties":{"name":"Chocó","code":"CO-CHO","source":"COL"},"geometry":{"type":"MultiPolygon","coordinates":[[[[-76.98,8.2548],[-77.03696,8.25279],[-77.13047,8.41207],[-77.24899,8.47279],[-77.35827,8.67545],[-77.3708,8.63777],[-77.40892,8.6454],[-77.39359,8.58943],[-77.44486,8.55496],[-77.4477,8.47217],[-77.39779,8.46214],[-77.35024,8.29781],[-77.25133,8.18722],[-77.23517,8.02558],[-77.13938,7.9542],[-77.33482,7.89364],[-77.36648,7.83046],[-77.34222,7.7657],[-77.39905,7.77244],[-77.49117,7.56711],[-77.51662,7.58273],[-77.56486,7.50779],[-77.6452,7.65147],[-77.72858,7.70004],[-77.74859,7.61354],[-77.70146,7.50694],[-77.75439,7.46148],[-77.81818,7.47248],[-77.89353,7.22297],[-77.68085,7.0414],[-77.65657,6.96505],[-77.69858,6.93931],[-77.70214,6.84221],[-77.66574,6.87524],[-77.58734,6.81786],[-77.52694,6.64818],[-77.49373,6.70399],[-77.4063,6.68691],[-77.40032,6.62074],[-77.32528,6.55],[-77.35856,6.39399],[-77.41207,6.38395],[-77.37011,6.3571],[-77.3953,6.23592],[-77.47315,6.29634],[-77.48274,6.19172],[-77.35079,5.99496],[-77.36324,6.05921],[-77.34784,6.0388],[-77.23544,5.7631],[-77.25571,5.78234],[-77.33735,5.61869],[-77.4876,5.60801],[-77.5395,5.48107],[-77.46217,5.48976],[-77.4244,5.43247],[-77.38948,5.44203],[-77.40428,5.32607],[-77.36077,5.3293],[-77.3435,5.24796],[-77.37404,5.23573],[-77.3885,5.28875],[-77.39576,5.16919],[-77.33975,5.20598],[-77.37743,5.17982],[-77.32553,5.14807],[-77.37706,5.14998],[-77.36411,5.12156],[-77.38644,5.15145],[-77.3756,4.96034],[-77.32192,4.96234],[-77.36804,4.93075],[-77.33593,4.85641],[-77.36215,4.86302],[-77.34724,4.78321],[-77.28572,4.74065],[-77.32718,4.73587],[-77.33442,4.43063],[-77.43925,4.3107],[-77.41263,4.29263],[-77.48958,4.25396],[-77.48294,4.29253],[-77.51471,4.27903],[-77.52617,4.12787],[-77.44965,4.06492],[-77.43788,4.14255],[-77.35167,4.19716],[-77.30465,4.16643],[-77.25891,4.23405],[-77.22432,4.15795],[-77.15741,4.18212],[-77.10728,4.10245],[-76.94817,4.11789],[-76.81563,4.00798],[-76.68523,3.96468],[-76.62408,4.00893],[-76.59113,3.96979],[-76.44488,4.17569],[-76.55473,4.39888],[-76.36422,4.49131],[-76.39686,4.53863],[-76.31836,4.60787],[-76.30455,4.7588],[-76.13708,4.84188],[-76.09752,4.92166],[-76.06102,5.13017],[-76.12918,5.18],[-76.21154,5.34731],[-76.18354,5.41115],[-76.08698,5.44542],[-76.0748,5.5466],[-76.00261,5.60079],[-76.08695,5.68864],[-76.06666,5.978],[-76.11173,6.02088],[-76.16534,6.00704],[-76.22559,6.19469],[-76.71803,6.17224],[-76.78996,6.32179],[-76.76719,6.47772],[-76.89286,6.56757],[-76.85856,6.61923],[-76.90992,6.63024],[-76.89989,6.67026],[-76.92814,6.64925],[-76.96388,6.68164],[-76.93333,6.71125],[-76.97096,6.81213],[-76.79113,6.86776],[-76.83464,6.99927],[-76.6761,7.02793],[-76.57193,6.97833],[-76.48291,7.13327],[-76.53275,7.25802],[-76.71713,7.36761],[-76.82943,7.5213],[-77.12289,7.7885],[-77.12633,7.83084],[-77.0311,7.8802],[-76.99434,8.02358],[-76.9546,8.04193],[-76.97825,8.24843],[-76.98,8.2548]]],[[[-77.69424,7.03862],[-77.7466,7.08686],[-77.71991,7.06513],[-77.69424,7.03862]]]]}},{"type":"Feature","properties":{"name":"Valle del Cauca","code":"CO-VAC","source":"COL"},"geometry":{"type":"Polygon","coordinates":[[[-75.75321,4.07702],[-75.83984,4.10175],[-75.78722,4.29337],[-75.80113,4.39153],[-75.89562,4.42583],[-75.86504,4.4543],[-75.86433,4.61529],[-75.82564,4.66345],[-75.70569,4.65473],[-75.71427,4.71297],[-75.85647,4.7275],[-75.85067,4.77878],[-75.92381,4.76098],[-75.90083,4.85426],[-75.9888,4.87335],[-76.0919,5.03687],[-76.13708,4.84188],[-76.30455,4.7588],[-76.31836,4.60787],[-76.39686,4.53863],[-76.36422,4.49131],[-76.55473,4.39888],[-76.44488,4.17569],[-76.59113,3.96979],[-76.62408,4.00893],[-76.68523,3.96468],[-76.81563,4.00798],[-76.94817,4.11789],[-77.10728,4.10245],[-77.15741,4.18212],[-77.22432,4.15795],[-77.25891,4.23405],[-77.30465,4.16643],[-77.35167,4.19716],[-77.43788,4.14255],[-77.43675,4.01104],[-77.35874,3.92668],[-77.28211,4.06232],[-77.18357,4.0528],[-77.23465,3.96893],[-77.26539,3.95055],[-77.27318,3.98647],[-77.31718,3.95151],[-77.28125,3.83947],[-77.18106,3.8314],[-77.10699,3.90794],[-77.04458,3.90549],[-77.12287,3.79325],[-77.14756,3.80921],[-77.1381,3.7518],[-77.19471,3.74823],[-77.14712,3.64001],[-77.18762,3.65531],[-77.2334,3.57706],[-77.30235,3.5653],[-77.41355,3.35757],[-77.54011,3.21775],[-77.47591,3.20911],[-77.42855,3.25319],[-77.36345,3.14466],[-77.31645,3.1741],[-77.23353,3.10747],[-77.08642,3.18562],[-76.93897,3.11433],[-76.90832,3.20051],[-76.77345,3.23381],[-76.73325,3.12503],[-76.6665,3.09917],[-76.62948,3.12714],[-76.60741,3.09109],[-76.57406,3.12847],[-76.5134,3.12076],[-76.46073,3.32898],[-76.0622,3.21343],[-75.99372,3.63752],[-75.75161,4.0687],[-75.75321,4.07702]]]}},{"type":"Feature","properties":{"name":"Norte de Santander","code":"CO-NSA","source":"COL"},"geometry":{"type":"Polygon","coordinates":[[[-73.63743,7.74948],[-73.57507,7.72609],[-73.49033,7.59155],[-73.35521,7.54446],[-73.25593,7.53075],[-73.22072,7.63292],[-72.98275,7.62042],[-72.97768,7.52937],[-72.89559,7.48048],[-72.83756,7.3585],[-72.87662,7.2662],[-72.83154,7.20752],[-72.83825,7.09863],[-72.78953,7.04899],[-72.74962,7.05992],[-72.73413,6.98786],[-72.5627,7.00054],[-72.54422,6.88935],[-72.48348,6.93013],[-72.39166,6.87308],[-72.2758,7.01462],[-72.24618,6.97673],[-72.18522,7.05281],[-72.04809,7.0379],[-72.17382,7.2521],[-72.15384,7.327],[-72.19645,7.38421],[-72.43942,7.40334],[-72.47598,7.48785],[-72.44442,7.85761],[-72.48769,7.94369],[-72.41623,8.03389],[-72.34723,8.01604],[-72.38786,8.34585],[-72.65511,8.61466],[-72.76638,9.10558],[-72.82192,9.14054],[-72.9477,9.09165],[-73.01061,9.29129],[-73.25015,9.15821],[-73.34726,9.1734],[-73.34946,9.21344],[-73.42382,9.12433],[-73.4485,8.87074],[-73.41414,8.76653],[-73.52157,8.65771],[-73.5172,8.52733],[-73.57803,8.50003],[-73.47536,8.46818],[-73.52682,8.38304],[-73.44196,8.34086],[-73.39314,8.38292],[-73.4141,8.45976],[-73.36206,8.44315],[-73.34998,8.33272],[-73.4355,8.14696],[-73.37714,8.10556],[-73.36624,8.01272],[-73.30933,8.0157],[-73.27611,7.94499],[-73.35054,7.89368],[-73.35086,7.79529],[-73.44052,7.69508],[-73.48989,7.6764],[-73.63198,7.74943],[-73.63743,7.74948]]]}},{"type":"Feature","properties":{"name":"Quindío","code":"CO-QUI","source":"COL"},"geometry":{"type":"Polygon","coordinates":[[[-75.38846,4.71618],[-75.48373,4.66464],[-75.7031,4.72133],[-75.70569,4.65473],[-75.84879,4.63759],[-75.89544,4.41677],[-75.80339,4.39553],[-75.78722,4.29337],[-75.83707,4.09852],[-75.75508,4.07561],[-75.6934,4.13567],[-75.59705,4.27933],[-75.57788,4.45365],[-75.51462,4.5557],[-75.42124,4.61037],[-75.38493,4.70894],[-75.38846,4.71618]]]}},{"type":"Feature","properties":{"name":"Vichada","code":"CO-VID","source":"COL"},"geometry":{"type":"Polygon","coordinates":[[[-71.07741,2.88214],[-70.95188,2.83954],[-70.94948,2.78682],[-70.9324,2.85806],[-70.86776,2.77525],[-70.81858,2.81271],[-70.8106,2.7593],[-70.72125,2.79351],[-70.71052,2.73675],[-70.64023,2.80148],[-70.65799,2.85617],[-70.6222,2.79359],[-70.58512,2.84109],[-70.49732,2.78588],[-70.35544,2.85292],[-70.35347,2.91481],[-70.27802,2.93367],[-70.3018,3.03378],[-70.25399,3.04458],[-70.32111,3.08221],[-70.28137,3.09009],[-70.24714,3.17658],[-70.2068,3.17212],[-70.21418,3.2076],[-70.16509,3.18052],[-70.17522,3.23536],[-70.12904,3.19886],[-70.15736,3.2741],[-70.10999,3.29621],[-70.1723,3.3495],[-70.12561,3.40023],[-69.94659,3.39277],[-69.95578,3.45874],[-69.87012,3.43827],[-69.89432,3.53508],[-69.81633,3.47635],[-69.84328,3.54797],[-69.79916,3.50719],[-69.78302,3.56253],[-69.7147,3.5466],[-69.73942,3.59149],[-69.69685,3.53906],[-69.65994,3.586],[-69.59076,3.56836],[-69.59025,3.68177],[-69.49257,3.65008],[-69.45326,3.70952],[-69.37018,3.66481],[-69.30402,3.71657],[-69.29384,3.64412],[-69.28242,3.72545],[-69.23371,3.67389],[-69.20659,3.70301],[-69.16951,3.67303],[-69.18461,3.63243],[-69.11784,3.67629],[-69.05776,3.63706],[-68.99421,3.69349],[-68.94034,3.68211],[-68.93433,3.74224],[-68.92249,3.68571],[-68.8632,3.70635],[-68.83116,3.66858],[-68.85142,3.73898],[-68.79683,3.71997],[-68.75752,3.78129],[-68.64886,3.76074],[-68.67066,3.81058],[-68.55067,3.76279],[-68.57247,3.81606],[-68.50913,3.77821],[-68.51342,3.82172],[-68.44201,3.8397],[-68.44355,3.88457],[-68.39583,3.84946],[-68.4372,3.91026],[-68.34673,3.92345],[-68.34261,3.99246],[-68.20889,3.96113],[-68.20494,3.99537],[-68.13422,3.99811],[-68.13061,3.94434],[-68.08177,3.98073],[-68.0772,3.93674],[-68.03328,4.01062],[-68.02573,3.97739],[-67.93458,3.96147],[-67.91319,3.90704],[-67.71818,4.03604],[-67.79839,4.23662],[-67.77318,4.419],[-67.85723,4.52469],[-67.80593,5.05401],[-67.85428,5.13523],[-67.82444,5.19614],[-67.84951,5.30396],[-67.62497,5.47596],[-67.59889,5.54409],[-67.63793,5.67501],[-67.59715,5.82824],[-67.41013,5.99429],[-67.49464,6.13094],[-67.46697,6.20935],[-67.54745,6.26631],[-67.81026,6.3243],[-68.02754,6.19611],[-68.14185,6.22867],[-68.30697,6.16299],[-68.44857,6.18773],[-68.64457,6.12915],[-69.04618,6.2217],[-69.23861,6.07953],[-69.30887,6.08865],[-69.3498,6.13988],[-69.54155,6.04365],[-69.79977,6.06053],[-70.12986,5.62079],[-70.28705,5.56092],[-70.35622,5.59189],[-70.68918,5.38212],[-70.6914,5.28895],[-70.84455,5.15849],[-70.93978,5.13013],[-71.00678,4.97028],[-71.0775,4.92464],[-71.07761,3.35582],[-71.07741,2.88214]]]}},{"type":"Feature","properties":{"name":"Vaupés","code":"CO-VAU","source":"COL"},"geometry":{"type":"Polygon","coordinates":[[[-69.43287,-1.0714],[-69.41861,-0.99827],[-69.528,-0.92514],[-69.52582,-0.86795],[-69.62491,-0.74667],[-69.56179,-0.63692],[-69.60297,-0.59531],[-69.60783,-0.5008],[-69.8446,-0.33732],[-69.92054,-0.32573],[-70.04323,-0.18998],[-70.04705,0.56284],[-69.80272,0.57162],[-69.6711,0.66759],[-69.60529,0.61328],[-69.48002,0.73577],[-69.35113,0.61395],[-69.28914,0.64997],[-69.29484,0.60389],[-69.19975,0.60591],[-69.18121,0.65342],[-69.1225,0.63282],[-69.19001,0.74056],[-69.14881,0.76751],[-69.16615,0.84269],[-69.13576,0.87204],[-69.18846,0.91324],[-69.1646,0.94156],[-69.21679,0.97245],[-69.19773,0.99974],[-69.3203,1.08865],[-69.42312,1.04265],[-69.43943,1.07389],[-69.60989,1.09826],[-69.70386,1.07506],[-69.70963,1.11817],[-69.84266,1.07272],[-69.84265,1.71491],[-70.05108,1.77404],[-70.17646,1.86908],[-70.11038,2.07958],[-70.18057,2.02415],[-70.43518,1.99949],[-70.48693,1.94568],[-70.63718,1.90282],[-70.89367,1.92774],[-70.96291,1.84124],[-71.09359,1.80102],[-71.25376,1.66821],[-71.38999,1.73518],[-71.39036,1.59912],[-71.55281,1.27734],[-71.55327,1.20777],[-71.48533,1.11016],[-71.55584,1.15665],[-71.54048,1.11493],[-71.58367,1.12702],[-71.58568,1.04602],[-71.66345,0.97271],[-71.74198,0.98551],[-71.77938,0.90383],[-72.03268,0.66782],[-71.98058,0.63233],[-72.01151,0.59683],[-71.98962,0.56344],[-71.92954,0.55348],[-71.91855,0.45066],[-71.85537,0.45526],[-71.8244,0.40637],[-71.85295,0.35155],[-71.76622,0.36971],[-71.7871,0.33352],[-71.73771,0.28563],[-71.70292,0.31707],[-71.72277,0.27447],[-71.6229,0.21543],[-71.63602,0.18389],[-71.55885,0.21656],[-71.58813,0.16621],[-71.52969,0.16588],[-71.53292,0.12138],[-71.47181,0.18547],[-71.41919,0.14314],[-71.40094,0.18655],[-71.33346,0.15379],[-71.29541,0.07059],[-71.22475,0.05501],[-71.17761,0.09547],[-71.13202,0.00368],[-71.10391,0.02688],[-71.09631,-0.00694],[-71.03778,-0.00508],[-71.02695,-0.04854],[-70.96943,-0.00839],[-70.89226,-0.11151],[-70.947,-0.15375],[-70.88364,-0.21333],[-70.82647,-0.36438],[-70.73558,-0.28712],[-70.67615,-0.3514],[-70.62698,-0.322],[-70.58072,-0.39149],[-70.51974,-0.35664],[-70.45391,-0.43698],[-70.4572,-0.49484],[-70.39831,-0.46238],[-70.33453,-0.49843],[-70.32191,-0.46976],[-70.36556,-0.45371],[-70.28891,-0.41228],[-70.21157,-0.44014],[-70.20265,-0.47203],[-70.24498,-0.46869],[-70.32662,-0.56373],[-70.26405,-0.5821],[-70.24882,-0.73692],[-70.29624,-0.79334],[-70.22128,-0.88321],[-70.30726,-0.96583],[-70.25339,-1.01889],[-70.19683,-0.98504],[-70.2278,-1.04685],[-70.16795,-1.11288],[-70.07839,-1.03581],[-70.13409,-1.01643],[-70.12634,-0.97628],[-70.0829,-0.94559],[-70.03416,-0.97846],[-70.01683,-0.93564],[-70.00053,-0.97429],[-69.90344,-0.96899],[-69.95448,-0.99518],[-69.9576,-1.09494],[-69.83451,-1.02775],[-69.75852,-1.0974],[-69.73367,-1.08409],[-69.77071,-1.03583],[-69.70014,-1.05178],[-69.64889,-1.11833],[-69.68097,-1.12167],[-69.66149,-1.2272],[-69.59392,-1.14634],[-69.56351,-1.19375],[-69.47837,-1.2115],[-69.48933,-1.1497],[-69.44121,-1.06969],[-69.43287,-1.0714]]]}},{"type":"Feature","properties":{"name":"Santander","code":"CO-SAN","source":"COL"},"geometry":{"type":"Polygon","coordinates":[[[-74.52111,6.27563],[-74.4491,6.09788],[-74.38005,6.04056],[-74.25976,6.06492],[-74.22278,5.96723],[-74.27992,5.86451],[-74.26266,5.82633],[-74.19724,5.85502],[-74.18064,5.91139],[-74.02552,5.80691],[-73.98196,5.72064],[-73.8129,5.71439],[-73.71541,5.78107],[-73.6469,5.71216],[-73.59991,5.86837],[-73.63016,5.91428],[-73.49779,6.10891],[-73.41431,6.0746],[-73.37144,6.00438],[-73.47136,5.81878],[-73.38923,5.75153],[-73.34674,5.84257],[-73.36929,5.87165],[-73.2479,5.81569],[-73.19573,5.83368],[-73.24097,5.90133],[-73.20004,6.00385],[-73.15658,5.98244],[-73.1469,6.0248],[-73.09383,5.99046],[-73.03149,6.0249],[-73.00917,5.96598],[-72.91621,6.10757],[-72.74464,6.229],[-72.72486,6.45815],[-72.80833,6.55923],[-72.76404,6.58308],[-72.71924,6.55333],[-72.64822,6.43617],[-72.53972,6.48829],[-72.47647,6.84217],[-72.50083,6.90872],[-72.54596,6.8909],[-72.5627,7.00054],[-72.73413,6.98786],[-72.74962,7.05992],[-72.78953,7.04899],[-72.83825,7.09863],[-72.83154,7.20752],[-72.87662,7.2662],[-72.83756,7.3585],[-72.89559,7.48048],[-72.97768,7.52937],[-72.98275,7.62042],[-73.22072,7.63292],[-73.25593,7.53075],[-73.35521,7.54446],[-73.49033,7.59155],[-73.57507,7.72609],[-73.75293,7.75064],[-73.75123,7.82452],[-73.67215,7.92836],[-73.72309,7.96963],[-73.77504,8.14342],[-73.86747,8.04084],[-73.7987,7.6517],[-73.91562,7.48742],[-73.89464,7.41384],[-73.93876,7.174],[-73.88377,7.00374],[-74.17024,6.72869],[-74.40028,6.59066],[-74.40479,6.46938],[-74.36794,6.40872],[-74.42828,6.3892],[-74.50927,6.27904],[-74.52111,6.27563]]]}},{"type":"Feature","properties":{"name":"Risaralda","code":"CO-RIS","source":"COL"},"geometry":{"type":"Polygon","coordinates":[[[-75.8674,5.48817],[-76.03685,5.56506],[-76.0748,5.5466],[-76.08698,5.44542],[-76.1958,5.39265],[-76.21154,5.34731],[-76.12918,5.18],[-76.06102,5.13017],[-76.09631,5.03453],[-75.9888,4.87335],[-75.90083,4.85426],[-75.9362,4.80698],[-75.90739,4.75187],[-75.85067,4.77878],[-75.85647,4.7275],[-75.55207,4.70253],[-75.48373,4.66464],[-75.41271,4.69826],[-75.37526,4.80385],[-75.42749,4.81767],[-75.48093,4.91698],[-75.6176,4.93202],[-75.63909,4.97613],[-75.69928,4.94436],[-75.74776,5.04582],[-75.81511,4.91915],[-75.89559,4.96257],[-75.91345,5.08436],[-75.8891,5.12922],[-75.83623,5.11546],[-75.80246,5.20157],[-75.82349,5.2703],[-75.69247,5.25574],[-75.63517,5.31566],[-75.72594,5.39747],[-75.8604,5.37251],[-75.86089,5.44345],[-75.8674,5.48817]]]}},{"type":"Feature","properties":{"name":"Putumayo","code":"CO-PUT","source":"COL"},"geometry":{"type":"Polygon","coordinates":[[[-73.8413,-0.39798],[-74.01354,-0.33721],[-74.11896,-0.23168],[-74.16395,-0.26724],[-74.20086,-0.20931],[-74.24086,-0.23467],[-74.28798,-0.2025],[-74.26485,-0.14527],[-74.34862,-0.10706],[-74.44862,-0.13876],[-74.42246,-0.10376],[-74.45422,-0.07134],[-74.4961,-0.13815],[-74.51635,-0.08898],[-74.53039,-0.12689],[-74.63289,-0.08778],[-74.64486,-0.03791],[-74.67857,-0.06022],[-74.65575,-0.0112],[-74.703,0.04469],[-74.65451,0.07202],[-74.71239,0.09153],[-74.67453,0.09748],[-74.67679,0.15933],[-74.72594,0.20692],[-75.00357,0.27318],[-74.9796,0.30988],[-75.01657,0.38494],[-74.98172,0.40501],[-75.01946,0.47568],[-75.10435,0.47328],[-75.10525,0.51363],[-75.21965,0.48325],[-75.21655,0.62736],[-75.3376,0.77216],[-75.40796,0.73633],[-75.51238,0.77017],[-75.54008,0.83073],[-75.64304,0.87851],[-75.76066,0.83711],[-75.79809,0.89406],[-75.86016,0.88683],[-75.90566,0.97073],[-75.94817,0.97671],[-75.92041,1.02897],[-75.99435,1.0714],[-75.99461,1.02671],[-76.08828,1.05778],[-76.07989,1.02106],[-76.17348,1.02956],[-76.23567,0.96458],[-76.44529,0.96915],[-76.54622,1.03809],[-76.5744,1.38769],[-76.66726,1.46728],[-76.8871,1.37199],[-76.92278,1.27475],[-76.97494,1.32159],[-77.12223,1.21543],[-77.08566,1.18074],[-77.09054,1.07119],[-77.0266,1.01236],[-77.11855,0.90056],[-77.10174,0.83398],[-77.14,0.81987],[-77.1868,0.63099],[-77.1174,0.59296],[-77.08815,0.39655],[-77.11331,0.37233],[-77.07611,0.2843],[-76.84563,0.23896],[-76.75607,0.24824],[-76.73295,0.28862],[-76.58634,0.21866],[-76.53284,0.25865],[-76.42163,0.23512],[-76.41136,0.37962],[-76.27389,0.43606],[-76.22644,0.37683],[-76.13294,0.37116],[-76.11337,0.31588],[-76.06788,0.33597],[-76.00368,0.29649],[-76.00543,0.24793],[-75.95922,0.23829],[-75.80661,0.05084],[-75.63336,0.04709],[-75.57453,-0.02658],[-75.27342,-0.12514],[-75.21129,-0.04924],[-75.16214,-0.04472],[-74.88328,-0.24328],[-74.79349,-0.1888],[-74.72838,-0.34279],[-74.67914,-0.3311],[-74.66037,-0.37448],[-74.60807,-0.35205],[-74.53714,-0.4586],[-74.42236,-0.49933],[-74.42045,-0.55992],[-74.38102,-0.55139],[-73.8413,-0.39798]]]}},{"type":"Feature","properties":{"name":"Nariño","code":"CO-NAR","source":"COL"},"geometry":{"type":"MultiPolygon","coordinates":[[[[-78.75411,1.81909],[-78.75633,1.81892],[-78.75414,1.81678],[-78.75411,1.81909]]],[[[-78.82004,1.46447],[-78.81586,1.46553],[-78.8175,1.46738],[-78.82004,1.46447]]],[[[-76.92057,1.34561],[-76.93025,1.50047],[-76.85801,1.52267],[-76.83501,1.6154],[-76.93604,1.72924],[-77.13682,1.65481],[-77.15085,1.68598],[-77.23835,1.6568],[-77.33112,1.68216],[-77.28816,1.84924],[-77.20347,1.95065],[-77.33525,2.0544],[-77.32288,2.2223],[-77.45943,2.28618],[-77.48794,2.19525],[-77.73936,2.13357],[-77.83864,2.17821],[-77.91879,2.4167],[-77.91735,2.60696],[-77.97096,2.66164],[-78.03874,2.64369],[-78.05026,2.55585],[-78.08062,2.63621],[-78.12187,2.6235],[-78.15089,2.68349],[-78.20963,2.66565],[-78.18612,2.58317],[-78.24498,2.66528],[-78.30331,2.65951],[-78.31099,2.58815],[-78.33252,2.65515],[-78.44868,2.59452],[-78.6181,2.37946],[-78.71119,2.17323],[-78.64663,2.04858],[-78.67181,1.97583],[-78.63682,2.0122],[-78.60135,1.99384],[-78.5969,1.89365],[-78.55272,1.90056],[-78.53408,1.85835],[-78.55391,1.75724],[-78.60247,1.74527],[-78.59971,1.79242],[-78.65067,1.79317],[-78.68649,1.74926],[-78.71672,1.79367],[-78.72696,1.73701],[-78.76131,1.82466],[-78.8318,1.81874],[-79.00783,1.65217],[-78.99189,1.60423],[-78.87111,1.55541],[-78.85144,1.47746],[-78.79937,1.48546],[-78.79244,1.40937],[-78.61918,1.24851],[-78.5514,1.24911],[-78.51577,1.1874],[-78.43797,1.19413],[-78.4256,1.13871],[-78.31058,1.19115],[-78.25107,1.09951],[-78.28183,1.05585],[-78.18487,0.93718],[-78.11177,0.93225],[-77.93619,0.8164],[-77.8427,0.80218],[-77.7135,0.85082],[-77.6647,0.81774],[-77.6979,0.74157],[-77.6662,0.70527],[-77.55984,0.65028],[-77.47951,0.65558],[-77.52646,0.40124],[-77.43078,0.43874],[-77.38906,0.38764],[-77.28758,0.36322],[-77.08815,0.39655],[-77.1174,0.59296],[-77.1868,0.63099],[-77.14,0.81987],[-77.10174,0.83398],[-77.11855,0.90056],[-77.0266,1.01236],[-77.09054,1.07119],[-77.08566,1.18074],[-77.12223,1.21543],[-76.97494,1.32159],[-76.92278,1.27475],[-76.92151,1.33634],[-76.92057,1.34561]]],[[[-78.63111,2.32841],[-78.62072,2.35824],[-78.63192,2.33083],[-78.63111,2.32841]]],[[[-78.04736,2.58781],[-78.0505,2.58781],[-78.05326,2.58433],[-78.04736,2.58781]]]]}},{"type":"Feature","properties":{"name":"Guaviare","code":"CO-GUV","source":"COL"},"geometry":{"type":"Polygon","coordinates":[[[-73.65877,1.61452],[-73.54033,1.40246],[-73.42473,1.28949],[-73.39268,1.14915],[-73.17598,0.99707],[-73.13718,0.91643],[-73.00896,0.91209],[-72.93237,1.01459],[-72.86929,1.02662],[-72.85409,1.16214],[-72.77193,1.18285],[-72.75081,1.1292],[-72.72629,1.18647],[-72.66062,1.15156],[-72.64882,1.18232],[-72.51113,1.06756],[-72.45623,1.07957],[-72.37621,0.96004],[-72.39205,0.91931],[-72.33848,0.92523],[-72.32759,0.8391],[-72.28887,0.87452],[-72.30936,0.80919],[-72.26986,0.76371],[-72.24827,0.78799],[-72.22015,0.70543],[-72.12689,0.73856],[-72.05145,0.65427],[-71.77938,0.90383],[-71.74198,0.98551],[-71.66345,0.97271],[-71.58568,1.04602],[-71.58367,1.12702],[-71.54048,1.11493],[-71.55584,1.15665],[-71.48533,1.11016],[-71.55327,1.20777],[-71.55281,1.27734],[-71.39036,1.59912],[-71.38999,1.73518],[-71.25376,1.66821],[-71.09359,1.80102],[-70.96291,1.84124],[-70.87883,1.93298],[-70.63718,1.90282],[-70.48693,1.94568],[-70.43518,1.99949],[-70.18057,2.02415],[-69.99453,2.22074],[-70.06426,2.29596],[-70.19443,2.22977],[-70.30549,2.25292],[-70.31223,2.20826],[-70.39896,2.26778],[-70.49681,2.23374],[-70.51102,2.28279],[-70.62991,2.31358],[-70.75373,2.53737],[-70.92408,2.56678],[-70.94249,2.60666],[-70.50676,2.78648],[-70.58512,2.84109],[-70.61783,2.79239],[-70.65799,2.85617],[-70.64023,2.80148],[-70.71052,2.73675],[-70.72125,2.79351],[-70.8106,2.7593],[-70.81858,2.81271],[-70.86776,2.77525],[-70.9324,2.85806],[-70.94948,2.78682],[-70.95849,2.84211],[-71.13616,2.90221],[-71.1468,2.87358],[-71.18491,2.90418],[-71.28782,2.86817],[-71.31863,2.92484],[-71.38747,2.84726],[-71.4642,2.89861],[-71.47031,2.85268],[-71.58215,2.873],[-71.57492,2.8452],[-71.64679,2.81841],[-71.65949,2.86985],[-71.70103,2.83899],[-71.76335,2.89659],[-71.78051,2.81721],[-71.8236,2.87842],[-71.85124,2.87036],[-71.82892,2.83659],[-71.98273,2.80092],[-72.0792,2.82218],[-72.13514,2.88854],[-72.20395,2.86318],[-72.19164,2.77246],[-72.25825,2.82407],[-72.27593,2.77692],[-72.32022,2.79921],[-72.40588,2.72548],[-72.46654,2.73389],[-72.47031,2.68896],[-72.53501,2.70258],[-72.58854,2.58285],[-72.61527,2.62578],[-72.65102,2.5717],[-72.68273,2.62269],[-72.74538,2.56893],[-72.82118,2.61181],[-72.95481,2.51706],[-72.9337,2.46458],[-72.96322,2.47984],[-73.10926,2.381],[-73.1242,2.41214],[-73.16208,2.36524],[-73.21667,2.40565],[-73.26798,2.37999],[-73.24009,2.34895],[-73.33158,2.36051],[-73.35537,2.32446],[-73.35662,2.36884],[-73.37763,2.32614],[-73.41441,2.35636],[-73.4375,2.32701],[-73.44182,2.38764],[-73.44686,2.34234],[-73.51113,2.33327],[-73.52774,2.38761],[-73.57168,2.35513],[-73.61617,2.37803],[-73.65623,2.295],[-73.65772,1.89523],[-73.65877,1.61452]]]}},{"type":"Feature","properties":{"name":"Guainía","code":"CO-GUA","source":"COL"},"geometry":{"type":"Polygon","coordinates":[[[-70.50676,2.78648],[-70.9413,2.60233],[-70.8071,2.52405],[-70.74932,2.5339],[-70.62991,2.31358],[-70.51102,2.28279],[-70.49681,2.23374],[-70.39896,2.26778],[-70.31223,2.20826],[-70.30549,2.25292],[-70.19443,2.22977],[-70.04652,2.29395],[-69.99469,2.20628],[-70.11875,2.1113],[-70.11154,2.00257],[-70.18068,1.88478],[-70.0425,1.77021],[-69.78236,1.69244],[-69.53464,1.77691],[-69.39109,1.72935],[-68.1645,1.72945],[-68.19207,1.7797],[-68.23954,1.77044],[-68.22688,1.82918],[-68.28555,1.83084],[-68.19583,2.03479],[-68.09043,1.89774],[-67.90162,1.81165],[-67.81385,1.9726],[-67.73205,2.0285],[-67.55095,2.04769],[-67.49519,2.16312],[-67.39739,2.22973],[-67.32672,2.06387],[-67.33083,1.94157],[-67.22831,1.84127],[-67.15384,1.8315],[-67.15922,1.67504],[-67.08017,1.38546],[-67.13923,1.32002],[-67.08675,1.16704],[-66.85119,1.22896],[-66.88121,1.2866],[-66.85492,1.36976],[-66.91105,1.42358],[-67.06532,1.92057],[-67.123,1.97689],[-67.10802,2.1193],[-67.16158,2.13284],[-67.22197,2.25425],[-67.1879,2.35031],[-67.49013,2.66312],[-67.56326,2.6569],[-67.61439,2.81155],[-67.75042,2.83754],[-67.8641,2.78944],[-67.86433,2.86623],[-67.43485,3.24847],[-67.38272,3.24554],[-67.31078,3.37789],[-67.33915,3.45102],[-67.40147,3.48],[-67.50129,3.76745],[-67.60682,3.75212],[-67.63443,3.78555],[-67.70958,4.04739],[-67.91319,3.90704],[-67.93458,3.96147],[-68.02573,3.97739],[-68.03328,4.01062],[-68.0772,3.93674],[-68.08177,3.98073],[-68.13061,3.94434],[-68.13422,3.99811],[-68.20494,3.99537],[-68.20889,3.96113],[-68.34261,3.99246],[-68.34673,3.92345],[-68.4372,3.91026],[-68.39583,3.84946],[-68.44355,3.88457],[-68.44201,3.8397],[-68.51342,3.82172],[-68.50913,3.77821],[-68.57247,3.81606],[-68.55067,3.76279],[-68.67066,3.81058],[-68.64886,3.76074],[-68.75752,3.78129],[-68.79683,3.71997],[-68.85142,3.73898],[-68.83116,3.66858],[-68.8632,3.70635],[-68.92249,3.68571],[-68.93433,3.74224],[-68.94034,3.68211],[-68.99421,3.69349],[-69.05776,3.63706],[-69.11784,3.67629],[-69.18461,3.63243],[-69.16951,3.67303],[-69.20659,3.70301],[-69.23371,3.67389],[-69.28242,3.72545],[-69.29384,3.64412],[-69.30402,3.71657],[-69.37018,3.66481],[-69.45326,3.70952],[-69.49257,3.65008],[-69.59025,3.68177],[-69.59076,3.56836],[-69.65994,3.586],[-69.69685,3.53906],[-69.73942,3.59149],[-69.7147,3.5466],[-69.78302,3.56253],[-69.79916,3.50719],[-69.84328,3.54797],[-69.81633,3.47635],[-69.89432,3.53508],[-69.87012,3.43827],[-69.95578,3.45874],[-69.94659,3.39277],[-70.12561,3.40023],[-70.1723,3.3495],[-70.10999,3.29621],[-70.15736,3.2741],[-70.12904,3.19886],[-70.17522,3.23536],[-70.16509,3.18052],[-70.21418,3.2076],[-70.2068,3.17212],[-70.24714,3.17658],[-70.28137,3.09009],[-70.32111,3.08221],[-70.25399,3.04458],[-70.3018,3.03378],[-70.27802,2.93367],[-70.35347,2.91481],[-70.35544,2.85292],[-70.50256,2.78493],[-70.50676,2.78648]]]}},{"type":"Feature","properties":{"name":"Bogota Capital District","code":"CO-DC","source":"COL"},"geometry":{"type":"Polygon","coordinates":[[[-74.14384,4.00316],[-74.10655,4.13797],[-74.15127,4.25435],[-74.09812,4.35056],[-74.11239,4.43258],[-73.99742,4.6021],[-74.03303,4.63601],[-73.99973,4.8059],[-74.07543,4.83701],[-74.17691,4.703],[-74.15851,4.66268],[-74.2215,4.64368],[-74.15998,4.50782],[-74.21789,4.3783],[-74.20374,4.24153],[-74.25657,4.08905],[-74.32867,4.12975],[-74.36007,3.91361],[-74.44147,3.72844],[-74.29666,3.81915],[-74.31896,3.87883],[-74.21803,4.0082],[-74.15339,4.00319],[-74.14384,4.00316]]]}},{"type":"Feature","properties":{"name":"Arauca","code":"CO-ARA","source":"COL"},"geometry":{"type":"Polygon","coordinates":[[[-69.43046,6.1078],[-70.11787,6.9797],[-70.32239,6.93457],[-70.43111,7.00728],[-70.50234,7.00567],[-70.55633,7.07932],[-70.64194,7.06877],[-70.68721,7.10438],[-70.91816,7.05301],[-71.02222,6.97429],[-71.11167,6.98993],[-71.12977,7.03294],[-71.58829,7.01554],[-71.58772,7.0552],[-71.70501,7.03247],[-71.74622,7.06573],[-71.94602,7.01082],[-72.05048,6.7706],[-72.0979,6.74596],[-72.12705,6.5106],[-72.26109,6.43146],[-72.36821,6.29178],[-72.27468,6.13326],[-72.13683,6.06652],[-71.95466,6.1719],[-71.67185,6.18805],[-71.63646,6.22794],[-71.50886,6.19595],[-71.43861,6.21631],[-71.44857,6.24654],[-71.37824,6.22536],[-71.26854,6.28343],[-71.23247,6.26409],[-71.22155,6.29866],[-70.9845,6.22916],[-70.80103,6.25464],[-70.72491,6.21618],[-70.52938,6.22919],[-70.38063,6.30108],[-70.27097,6.27326],[-70.15977,6.29795],[-70.03543,6.18649],[-70.05798,6.16039],[-69.9876,6.16741],[-69.86133,6.0392],[-69.54155,6.04365],[-69.43569,6.10482],[-69.43046,6.1078]]]}},{"type":"Feature","properties":{"name":"Boyacá","code":"CO-BOY","source":"COL"},"geometry":{"type":"Polygon","coordinates":[[[-74.65933,5.75137],[-74.51079,5.79437],[-74.43277,5.76018],[-74.33465,5.83666],[-74.27732,5.69474],[-74.3148,5.62307],[-74.24372,5.54517],[-74.25416,5.48664],[-74.20144,5.49704],[-74.12508,5.43279],[-74.09688,5.46992],[-74.02258,5.36502],[-73.89929,5.44947],[-73.90849,5.52625],[-73.80472,5.57358],[-73.77102,5.48853],[-73.59283,5.39892],[-73.60243,5.31808],[-73.53317,5.28072],[-73.47787,5.14754],[-73.53785,4.89538],[-73.40211,4.87865],[-73.30519,4.73071],[-73.234,4.73566],[-73.22078,4.67753],[-73.10508,4.66053],[-73.04668,4.74523],[-73.0739,4.81792],[-73.03042,4.9825],[-72.97245,4.97587],[-72.90323,5.06875],[-72.9734,5.1492],[-72.87754,5.35942],[-72.79681,5.39517],[-72.70042,5.27352],[-72.58033,5.35255],[-72.41732,5.5673],[-72.34434,5.50696],[-72.28091,5.60559],[-72.26373,5.6692],[-72.29929,5.68785],[-72.25559,5.79316],[-72.39268,5.82362],[-72.32417,5.88711],[-72.36588,6.03716],[-72.3175,6.07927],[-72.36941,6.08091],[-72.37369,6.15053],[-72.41879,6.18521],[-72.40044,6.27288],[-72.26109,6.43146],[-72.12705,6.5106],[-72.0979,6.74596],[-72.05048,6.7706],[-71.94602,7.01082],[-72.17515,7.05484],[-72.21903,6.9861],[-72.28124,7.01109],[-72.39166,6.87308],[-72.48786,6.92923],[-72.48585,6.65902],[-72.54347,6.58341],[-72.53817,6.48987],[-72.64822,6.43617],[-72.71924,6.55333],[-72.76404,6.58308],[-72.80833,6.55923],[-72.72486,6.45815],[-72.74464,6.229],[-72.91621,6.10757],[-73.00917,5.96598],[-73.03149,6.0249],[-73.09383,5.99046],[-73.1469,6.0248],[-73.15658,5.98244],[-73.20004,6.00385],[-73.24097,5.90133],[-73.18826,5.85851],[-73.20602,5.82619],[-73.36929,5.87165],[-73.37785,5.76432],[-73.43101,5.76755],[-73.47136,5.81878],[-73.37144,6.00438],[-73.41431,6.0746],[-73.49779,6.10891],[-73.63016,5.91428],[-73.59991,5.86837],[-73.6469,5.71216],[-73.71541,5.78107],[-73.8129,5.71439],[-73.98196,5.72064],[-74.02552,5.80691],[-74.18064,5.91139],[-74.19724,5.85502],[-74.26266,5.82633],[-74.27992,5.86451],[-74.22278,5.96723],[-74.25976,6.06492],[-74.38005,6.04056],[-74.4491,6.09788],[-74.52111,6.27563],[-74.61108,6.13072],[-74.56132,6.07568],[-74.56105,6.00218],[-74.61093,5.97122],[-74.58629,5.89863],[-74.63662,5.87308],[-74.6575,5.76332],[-74.65933,5.75137]]]}},{"type":"Feature","properties":{"name":"Casanare","code":"CO-CAS","source":"COL"},"geometry":{"type":"Polygon","coordinates":[[[-71.0775,4.92464],[-71.00678,4.97028],[-70.93978,5.13013],[-70.84455,5.15849],[-70.6914,5.28895],[-70.68612,5.38451],[-70.35622,5.59189],[-70.28705,5.56092],[-70.12986,5.62079],[-69.82649,6.04359],[-69.89162,6.05205],[-69.9876,6.16741],[-70.05798,6.16039],[-70.03543,6.18649],[-70.15977,6.29795],[-70.27097,6.27326],[-70.38063,6.30108],[-70.52938,6.22919],[-70.72491,6.21618],[-70.80103,6.25464],[-70.9845,6.22916],[-71.22155,6.29866],[-71.23247,6.26409],[-71.26854,6.28343],[-71.37824,6.22536],[-71.44857,6.24654],[-71.43861,6.21631],[-71.50886,6.19595],[-71.63646,6.22794],[-71.67185,6.18805],[-71.95466,6.1719],[-72.13683,6.06652],[-72.27468,6.13326],[-72.37464,6.30537],[-72.41879,6.18521],[-72.37369,6.15053],[-72.36941,6.08091],[-72.318,6.0814],[-72.36588,6.03716],[-72.32417,5.88711],[-72.39268,5.82362],[-72.25559,5.79316],[-72.29929,5.68785],[-72.26373,5.6692],[-72.28091,5.60559],[-72.34434,5.50696],[-72.41732,5.5673],[-72.58033,5.35255],[-72.70042,5.27352],[-72.79681,5.39517],[-72.87754,5.35942],[-72.9734,5.1492],[-72.90323,5.06875],[-72.97245,4.97587],[-73.0196,5.00151],[-73.0733,4.80158],[-73.03746,4.66474],[-72.69694,4.286],[-72.675,4.31715],[-72.5648,4.3059],[-72.56132,4.34277],[-72.47064,4.31733],[-72.42907,4.355],[-72.40493,4.31905],[-72.23705,4.43521],[-71.98642,4.38674],[-71.80835,4.58274],[-71.73256,4.5756],[-71.57627,4.67563],[-71.21382,4.81563],[-71.08081,4.92514],[-71.0775,4.92464]]]}},{"type":"Feature","properties":{"name":"Cauca","code":"CO-CAU","source":"COL"},"geometry":{"type":"Polygon","coordinates":[[[-76.05652,3.22388],[-76.19121,3.22806],[-76.22961,3.27589],[-76.46073,3.32898],[-76.5134,3.12076],[-76.57406,3.12847],[-76.60741,3.09109],[-76.62948,3.12714],[-76.6665,3.09917],[-76.73325,3.12503],[-76.77345,3.23381],[-76.90832,3.20051],[-76.93897,3.11433],[-77.08642,3.18562],[-77.23353,3.10747],[-77.31645,3.1741],[-77.36345,3.14466],[-77.42855,3.25319],[-77.47591,3.20911],[-77.54011,3.21775],[-77.66693,3.0456],[-77.7032,2.96845],[-77.66131,2.97776],[-77.69909,2.89675],[-77.66634,2.85396],[-77.70504,2.86262],[-77.76367,2.79502],[-77.73451,2.77122],[-77.79655,2.75208],[-77.77209,2.65174],[-77.80467,2.63884],[-77.84207,2.70364],[-77.90739,2.6806],[-77.8863,2.61212],[-77.92788,2.64007],[-77.91879,2.4167],[-77.83864,2.17821],[-77.73936,2.13357],[-77.48794,2.19525],[-77.45943,2.28618],[-77.35202,2.25695],[-77.30816,2.19622],[-77.33525,2.0544],[-77.20347,1.95065],[-77.28816,1.84924],[-77.33112,1.68216],[-77.23835,1.6568],[-77.15085,1.68598],[-77.13682,1.65481],[-76.93604,1.72924],[-76.8342,1.6073],[-76.85801,1.52267],[-76.93025,1.50047],[-76.92057,1.34561],[-76.64665,1.4551],[-76.5744,1.38769],[-76.54622,1.03809],[-76.4263,0.96043],[-76.23567,0.96458],[-76.20441,1.01725],[-76.0749,1.03343],[-76.12322,1.09987],[-76.25902,1.12381],[-76.30185,1.17598],[-76.3025,1.23753],[-76.21544,1.32181],[-76.15849,1.57787],[-76.19854,1.58009],[-76.21708,1.66518],[-76.38363,1.6646],[-76.37403,1.74942],[-76.4241,1.72314],[-76.43291,1.79203],[-76.58601,1.87209],[-76.62426,1.97385],[-76.57268,2.0221],[-76.59015,2.09852],[-76.55177,2.1385],[-76.43201,2.11999],[-76.43462,2.18751],[-76.37377,2.27909],[-76.29906,2.28249],[-76.20909,2.19901],[-76.14387,2.20438],[-76.12609,2.38025],[-76.09085,2.41552],[-76.03791,2.40149],[-75.97794,2.50306],[-75.861,2.42877],[-75.81406,2.48386],[-75.8381,2.56519],[-75.74751,2.71899],[-76.03435,2.94477],[-76.02246,3.00343],[-76.10853,3.10419],[-76.07347,3.12344],[-76.09011,3.20097],[-76.05336,3.21636],[-76.05652,3.22388]]]}},{"type":"Feature","properties":{"name":"Caquetá","code":"CO-CAQ","source":"COL"},"geometry":{"type":"Polygon","coordinates":[[[-71.3227,0.11176],[-71.40094,0.18655],[-71.41919,0.14314],[-71.47181,0.18547],[-71.53292,0.12138],[-71.52969,0.16588],[-71.58813,0.16621],[-71.55885,0.21656],[-71.63602,0.18389],[-71.6229,0.21543],[-71.72277,0.27447],[-71.70292,0.31707],[-71.73771,0.28563],[-71.7871,0.33352],[-71.76622,0.36971],[-71.85106,0.34944],[-71.8244,0.40637],[-71.85537,0.45526],[-71.92121,0.4541],[-71.93941,0.57022],[-71.95263,0.53924],[-72.01151,0.59683],[-71.9976,0.6575],[-72.08595,0.65659],[-72.06992,0.69206],[-72.12689,0.73856],[-72.22015,0.70543],[-72.24827,0.78799],[-72.26986,0.76371],[-72.30936,0.80919],[-72.28887,0.87452],[-72.32759,0.8391],[-72.33848,0.92523],[-72.39205,0.91931],[-72.37621,0.96004],[-72.45623,1.07957],[-72.51113,1.06756],[-72.64882,1.18232],[-72.66062,1.15156],[-72.72629,1.18647],[-72.75081,1.1292],[-72.77193,1.18285],[-72.81919,1.17944],[-72.87168,1.14291],[-72.86929,1.02662],[-73.07941,0.89468],[-73.39268,1.14915],[-73.42473,1.28949],[-73.54033,1.40246],[-73.65877,1.61452],[-73.85828,1.6583],[-73.98143,1.60178],[-73.99957,1.65789],[-74.09051,1.64247],[-74.1123,1.69614],[-74.20591,1.7147],[-74.21536,1.76666],[-74.27047,1.75353],[-74.56464,1.84921],[-74.60947,2.0708],[-74.59009,2.19549],[-74.65742,2.21211],[-74.67663,2.28475],[-74.73267,2.273],[-74.65077,2.49551],[-74.68577,2.54582],[-74.59064,2.66618],[-74.63844,2.70437],[-74.61739,2.74827],[-74.67692,2.89013],[-74.76572,2.87684],[-74.79473,2.93319],[-74.93393,2.90668],[-75.06436,2.74573],[-75.14755,2.7217],[-75.13434,2.59902],[-75.17649,2.51683],[-75.22851,2.51472],[-75.30709,2.36146],[-75.38507,2.31492],[-75.44275,2.15274],[-75.53168,2.11859],[-75.73918,1.78515],[-75.90728,1.71478],[-76.04777,1.57184],[-76.1203,1.55547],[-76.16826,1.58722],[-76.14876,1.54535],[-76.21544,1.32181],[-76.30578,1.22887],[-76.25902,1.12381],[-75.92041,1.02897],[-75.94817,0.97671],[-75.90566,0.97073],[-75.85117,0.8795],[-75.79809,0.89406],[-75.75723,0.83658],[-75.64304,0.87851],[-75.54008,0.83073],[-75.51238,0.77017],[-75.40796,0.73633],[-75.3376,0.77216],[-75.26652,0.72525],[-75.27417,0.66555],[-75.20964,0.59234],[-75.21965,0.48325],[-75.10525,0.51363],[-75.10435,0.47328],[-75.02765,0.48204],[-74.98352,0.41548],[-75.01657,0.38494],[-74.9796,0.30988],[-75.00357,0.27318],[-74.72594,0.20692],[-74.67679,0.15933],[-74.67453,0.09748],[-74.71239,0.09153],[-74.65451,0.07202],[-74.7039,0.03788],[-74.65575,-0.0112],[-74.67857,-0.06022],[-74.61858,-0.05309],[-74.63289,-0.08778],[-74.53039,-0.12689],[-74.51635,-0.08898],[-74.4961,-0.13815],[-74.45422,-0.07134],[-74.42246,-0.10376],[-74.44862,-0.13876],[-74.34862,-0.10706],[-74.26485,-0.14527],[-74.28798,-0.2025],[-74.23373,-0.23786],[-74.20086,-0.20931],[-74.18055,-0.2647],[-74.11896,-0.23168],[-74.01354,-0.33721],[-73.82415,-0.409],[-73.71662,-0.3807],[-73.6403,-0.41766],[-73.65144,-0.45786],[-73.58259,-0.44753],[-73.56755,-0.51819],[-73.53401,-0.48827],[-73.48751,-0.52902],[-73.32974,-0.50664],[-73.20243,-0.62712],[-73.0753,-0.62364],[-73.01416,-0.52811],[-72.92057,-0.61617],[-72.74876,-0.55686],[-72.56276,-0.70643],[-72.43358,-0.56525],[-72.34904,-0.64009],[-72.26285,-0.62417],[-72.15319,-0.36312],[-72.03841,-0.26746],[-71.74998,-0.25147],[-71.68767,-0.069],[-71.59676,-0.0064],[-71.39768,0.03078],[-71.33295,0.08922],[-71.3227,0.11176]]]}},{"type":"Feature","properties":{"name":"Huila","code":"CO-HUI","source":"COL"},"geometry":{"type":"Polygon","coordinates":[[[-74.41598,3.74073],[-74.45157,3.72435],[-74.45107,3.81043],[-74.53943,3.84485],[-74.55677,3.76808],[-74.73859,3.58976],[-74.72768,3.55421],[-74.78235,3.49953],[-74.76505,3.4426],[-74.90781,3.29002],[-75.07266,3.29606],[-75.04364,3.42916],[-75.14763,3.43549],[-75.18399,3.38181],[-75.22838,3.41458],[-75.25295,3.36656],[-75.31996,3.41956],[-75.36489,3.4089],[-75.52619,3.31982],[-75.6342,2.99502],[-75.69412,2.9946],[-75.84489,2.8705],[-76.02233,2.9732],[-75.96304,2.87401],[-75.7534,2.74292],[-75.8381,2.56519],[-75.81406,2.48386],[-75.88577,2.42825],[-75.97794,2.50306],[-76.03791,2.40149],[-76.1034,2.40666],[-76.14662,2.29341],[-76.12106,2.2245],[-76.15335,2.19894],[-76.20909,2.19901],[-76.27859,2.27583],[-76.37377,2.27909],[-76.43462,2.18751],[-76.43201,2.11999],[-76.55598,2.13738],[-76.59015,2.09852],[-76.5756,2.01253],[-76.62426,1.97385],[-76.58601,1.87209],[-76.43291,1.79203],[-76.4241,1.72314],[-76.37403,1.74942],[-76.38363,1.6646],[-76.21708,1.66518],[-76.19854,1.58009],[-76.1203,1.55547],[-76.03083,1.58214],[-75.90106,1.71884],[-75.73918,1.78515],[-75.53168,2.11859],[-75.44275,2.15274],[-75.38507,2.31492],[-75.30709,2.36146],[-75.22851,2.51472],[-75.17649,2.51683],[-75.13434,2.59902],[-75.14755,2.7217],[-75.06436,2.74573],[-74.67024,3.20074],[-74.6155,3.32609],[-74.63442,3.46913],[-74.41285,3.73795],[-74.41598,3.74073]]]}},{"type":"Feature","properties":{"name":"Archipiélago de San Andrés, Providencia y Santa Catalina","code":"CO-SAP","source":"COL"},"geometry":{"type":"MultiPolygon","coordinates":[[[[-81.73317,12.53766],[-81.73008,12.48022],[-81.68929,12.58376],[-81.73168,12.54493],[-81.73317,12.53766]]],[[[-81.39412,13.34375],[-81.35955,13.33427],[-81.35451,13.37746],[-81.39297,13.34801],[-81.39412,13.34375]]],[[[-81.37637,13.38151],[-81.3707,13.38238],[-81.36843,13.38596],[-81.37637,13.38151]]]]}}]}