{"type":"FeatureCollection","features":[{"type":"Feature","properties":{"name":"Pastaza","code":"EC-Y","source":"ECU"},"geometry":{"type":"Polygon","coordinates":[[[-75.57932,-1.55103],[-75.59999,-1.50559],[-75.88539,-1.33838],[-75.94054,-1.35677],[-76.10963,-1.27383],[-76.28941,-1.31273],[-76.39608,-1.26079],[-76.45401,-1.26378],[-76.52498,-1.1958],[-76.51771,-1.056],[-76.60541,-1.07136],[-76.69173,-0.99707],[-76.72744,-1.03031],[-76.87478,-1.06028],[-76.9135,-1.11787],[-77.03908,-1.09662],[-77.07478,-1.05835],[-77.07005,-1.01177],[-77.11967,-1.01239],[-77.33474,-1.0678],[-77.35239,-1.09995],[-77.44246,-1.08187],[-77.55404,-1.15198],[-77.68979,-1.14364],[-77.83258,-1.21547],[-77.87683,-1.20029],[-77.89115,-1.24112],[-77.95101,-1.20628],[-78.0447,-1.24218],[-78.12174,-1.22041],[-78.12139,-1.35451],[-78.17507,-1.44544],[-78.07964,-1.50796],[-78.01703,-1.67173],[-77.93064,-1.65797],[-77.88697,-1.69594],[-77.81809,-1.92353],[-77.71116,-2.02408],[-77.44423,-2.09797],[-77.41215,-2.14424],[-77.29255,-2.19511],[-77.1039,-2.32664],[-76.99211,-2.51498],[-76.9183,-2.5648],[-76.82747,-2.53959],[-76.80225,-2.57209],[-76.73772,-2.56243],[-76.69623,-2.61087],[-76.0517,-2.15742],[-75.58669,-1.55463],[-75.57932,-1.55103]]]}},{"type":"Feature","properties":{"name":"Carchi","code":"EC-C","source":"ECU"},"geometry":{"type":"Polygon","coordinates":[[[-77.5589,0.65219],[-77.69161,0.7474],[-77.66838,0.82202],[-77.70569,0.84948],[-77.8493,0.80137],[-77.95772,0.83047],[-78.12221,0.94006],[-78.19543,0.9485],[-78.20104,0.99391],[-78.28094,1.04978],[-78.25766,1.08162],[-78.30617,1.19141],[-78.42782,1.15266],[-78.42902,1.1902],[-78.49646,1.20237],[-78.49476,1.08643],[-78.5438,1.02884],[-78.5352,0.93207],[-78.22068,0.74037],[-78.08879,0.4878],[-78.00682,0.47658],[-77.84015,0.36294],[-77.79802,0.38213],[-77.80844,0.43261],[-77.66961,0.58044],[-77.67949,0.65013],[-77.56075,0.64249],[-77.5589,0.65219]]]}},{"type":"Feature","properties":{"name":"Loja","code":"EC-L","source":"ECU"},"geometry":{"type":"Polygon","coordinates":[[[-79.43205,-4.74328],[-79.33375,-4.61552],[-79.29666,-4.49056],[-79.20765,-4.50872],[-79.11351,-4.41526],[-79.10358,-4.19773],[-79.16271,-4.10904],[-79.12525,-3.88048],[-79.19483,-3.73553],[-79.09775,-3.62496],[-79.13326,-3.59266],[-79.18082,-3.44639],[-79.26626,-3.48227],[-79.29736,-3.44895],[-79.30761,-3.36198],[-79.45419,-3.33581],[-79.4654,-3.38627],[-79.42829,-3.45863],[-79.47635,-3.51496],[-79.49592,-3.61776],[-79.47965,-3.63319],[-79.42125,-3.57979],[-79.36368,-3.64571],[-79.40773,-3.73149],[-79.40026,-3.78516],[-79.44057,-3.81213],[-79.55912,-3.79931],[-79.61774,-3.75334],[-79.70618,-3.82801],[-79.76709,-3.84261],[-79.94733,-3.83215],[-80.01461,-3.87407],[-80.13259,-3.89483],[-80.27876,-4.01858],[-80.3569,-3.98949],[-80.43269,-4.00216],[-80.47564,-4.08945],[-80.43833,-4.12689],[-80.44396,-4.21265],[-80.30551,-4.20467],[-80.4449,-4.38653],[-80.44185,-4.44895],[-80.39585,-4.48533],[-80.24379,-4.40319],[-80.1689,-4.30306],[-80.0868,-4.30065],[-79.99273,-4.37725],[-79.8857,-4.40507],[-79.80497,-4.49354],[-79.63653,-4.43878],[-79.54157,-4.52861],[-79.4972,-4.52054],[-79.48803,-4.62944],[-79.43257,-4.74111],[-79.43205,-4.74328]]]}},{"type":"Feature","properties":{"name":"Zamora Chinchipe","code":"EC-Z","source":"ECU"},"geometry":{"type":"Polygon","coordinates":[[[-79.43205,-4.74328],[-79.41332,-4.82277],[-79.36545,-4.84131],[-79.25985,-4.97272],[-79.08427,-4.97138],[-79.02117,-5.01147],[-78.98485,-4.9044],[-78.90015,-4.88757],[-78.92288,-4.78781],[-78.89075,-4.71707],[-78.82805,-4.64374],[-78.67296,-4.58999],[-78.6028,-4.41986],[-78.63448,-4.41235],[-78.6549,-4.34875],[-78.57746,-4.18332],[-78.58778,-4.13615],[-78.54181,-4.07268],[-78.56674,-3.99068],[-78.49157,-3.92448],[-78.41413,-3.78697],[-78.4254,-3.69616],[-78.37029,-3.52599],[-78.64093,-3.53686],[-78.68685,-3.58652],[-78.83423,-3.543],[-78.9437,-3.34355],[-79.04327,-3.40948],[-79.03558,-3.4768],[-79.06445,-3.51337],[-79.03985,-3.58377],[-79.15673,-3.66972],[-79.1504,-3.6998],[-79.19483,-3.73553],[-79.12525,-3.88048],[-79.16271,-4.10904],[-79.10358,-4.19773],[-79.11351,-4.41526],[-79.20765,-4.50872],[-79.29666,-4.49056],[-79.33375,-4.61552],[-79.42432,-4.7365],[-79.43205,-4.74328]]]}},{"type":"Feature","properties":{"name":"El Oro","code":"EC-O","source":"ECU"},"geometry":{"type":"MultiPolygon","coordinates":[[[[-80.23099,-3.36662],[-80.2385,-3.32865],[-80.26186,-3.36662],[-80.28898,-3.35285],[-80.28814,-3.43086],[-80.20846,-3.43587],[-80.23307,-3.37371],[-80.23099,-3.36662]]],[[[-80.00405,-3.32824],[-79.9907,-3.28485],[-80.03492,-3.20892],[-80.07997,-3.30696],[-80.13838,-3.34158],[-80.225,-3.34596],[-80.19917,-3.41184],[-80.16132,-3.42168],[-80.05703,-3.39832],[-80.01239,-3.34367],[-80.00405,-3.32824]]],[[[-79.46104,-3.33784],[-79.51426,-3.31418],[-79.64803,-3.32807],[-79.59297,-3.15607],[-79.86044,-3.04821],[-79.91569,-3.18059],[-79.97399,-3.2099],[-80.03392,-3.4061],[-80.23991,-3.47467],[-80.1895,-3.60185],[-80.18935,-3.77078],[-80.14781,-3.88412],[-80.05065,-3.88502],[-79.94733,-3.83215],[-79.70618,-3.82801],[-79.61774,-3.75334],[-79.55912,-3.79931],[-79.44057,-3.81213],[-79.40026,-3.78516],[-79.40773,-3.73149],[-79.36368,-3.64571],[-79.42125,-3.57979],[-79.47965,-3.63319],[-79.49592,-3.61776],[-79.47635,-3.51496],[-79.42829,-3.45863],[-79.4614,-3.33795],[-79.46104,-3.33784]]]]}},{"type":"Feature","properties":{"name":"Esmeraldas","code":"EC-E","source":"ECU"},"geometry":{"type":"MultiPolygon","coordinates":[[[[-79.00328,1.21732],[-78.97269,1.24637],[-79.00619,1.279],[-79.04412,1.245],[-79.012,1.21663],[-79.00328,1.21732]]],[[[-78.8418,1.3142],[-78.86931,1.36017],[-78.84847,1.31301],[-78.8418,1.3142]]],[[[-78.93435,1.25567],[-78.88389,1.27863],[-78.90445,1.37849],[-78.97574,1.28584],[-78.94744,1.2522],[-78.93435,1.25567]]],[[[-78.49646,1.20237],[-78.64435,1.27891],[-78.69275,1.37387],[-78.74482,1.37644],[-78.8102,1.42441],[-78.84491,1.35312],[-78.82756,1.31734],[-78.78537,1.3104],[-78.85372,1.30213],[-78.88589,1.25337],[-78.98962,1.21829],[-78.99897,1.16836],[-79.05198,1.21834],[-79.16578,1.10266],[-79.412,1.08132],[-79.54769,1.00167],[-79.73292,0.96886],[-79.80588,0.90154],[-79.95907,0.82714],[-80.05839,0.82234],[-80.09631,0.77081],[-80.10512,0.68777],[-80.00687,0.60314],[-80.00687,0.54066],[-80.06267,0.46617],[-79.97803,0.37459],[-79.9783,0.28782],[-79.93237,0.25845],[-79.89046,0.32413],[-79.83198,0.32894],[-79.7906,0.29796],[-79.72732,0.3236],[-79.73036,0.28126],[-79.67516,0.257],[-79.7081,0.18289],[-79.4221,0.07536],[-79.35807,0.08303],[-79.33912,0.11534],[-79.31322,0.18342],[-79.36195,0.2435],[-79.28232,0.29339],[-79.26968,0.34688],[-79.16322,0.35531],[-79.0378,0.30877],[-78.95885,0.3696],[-78.84892,0.38073],[-78.78457,0.42238],[-78.64947,0.38767],[-78.55132,0.521],[-78.46124,0.542],[-78.42894,0.58471],[-78.53039,0.76547],[-78.46765,0.78176],[-78.44309,0.81833],[-78.45258,0.88704],[-78.54454,0.95263],[-78.54021,1.04405],[-78.49476,1.08643],[-78.50091,1.18844],[-78.49646,1.20237]]],[[[-78.84659,1.38922],[-78.82437,1.44048],[-78.87632,1.38888],[-78.85633,1.38272],[-78.84659,1.38922]]],[[[-78.87666,1.39588],[-78.84727,1.42954],[-78.86333,1.45962],[-78.88469,1.39076],[-78.87666,1.39588]]]]}},{"type":"Feature","properties":{"name":"Imbabura","code":"EC-I","source":"ECU"},"geometry":{"type":"Polygon","coordinates":[[[-78.45258,0.88704],[-78.45644,0.7903],[-78.53039,0.76547],[-78.43267,0.5751],[-78.46124,0.542],[-78.55132,0.521],[-78.64947,0.38767],[-78.78457,0.42238],[-78.84892,0.38073],[-78.95885,0.3696],[-79.0378,0.30877],[-79.16322,0.35531],[-79.26968,0.34688],[-79.27487,0.32148],[-79.07026,0.31082],[-79.01781,0.27613],[-79.00431,0.22521],[-78.94587,0.2124],[-78.85018,0.24623],[-78.64325,0.21274],[-78.40758,0.25845],[-78.35872,0.20745],[-78.37821,0.16794],[-78.33415,0.19704],[-78.25512,0.13136],[-78.17663,0.12682],[-78.03085,0.1925],[-77.9625,0.16847],[-77.8808,0.21253],[-77.83621,0.26886],[-77.85303,0.3033],[-77.81001,0.37347],[-77.84641,0.36503],[-78.00682,0.47658],[-78.08879,0.4878],[-78.22068,0.74037],[-78.45101,0.88531],[-78.45258,0.88704]]]}},{"type":"Feature","properties":{"name":"Sucumbios","code":"EC-U","source":"ECU"},"geometry":{"type":"Polygon","coordinates":[[[-77.81001,0.37347],[-77.85303,0.3033],[-77.83621,0.26886],[-77.97198,0.13266],[-77.87895,0.08427],[-77.84557,0.03129],[-77.78049,0.02712],[-77.76597,-0.07672],[-77.72752,-0.04785],[-77.69745,-0.07826],[-77.58433,-0.09603],[-77.45771,-0.0135],[-77.45067,-0.12976],[-77.37244,-0.14578],[-77.28087,-0.03631],[-77.19329,-0.09291],[-77.1212,-0.0817],[-77.08863,-0.10493],[-76.93271,-0.05767],[-76.6246,-0.42425],[-76.5477,-0.4093],[-76.38205,-0.51622],[-76.2486,-0.44103],[-76.08285,-0.43368],[-76.03193,-0.51622],[-75.92376,-0.5603],[-75.94068,-0.41454],[-75.88207,-0.40258],[-75.82089,-0.43693],[-75.73652,-0.41382],[-75.6895,-0.46588],[-75.63974,-0.44849],[-75.56572,-0.48972],[-75.541,-0.53792],[-75.39712,-0.55791],[-75.37534,-0.6018],[-75.27785,-0.62387],[-75.27307,-0.64625],[-75.22085,-0.6242],[-75.23311,-0.51032],[-75.36893,-0.4292],[-75.53618,-0.14923],[-75.51638,-0.1034],[-75.37667,-0.15769],[-75.29964,-0.14838],[-75.25444,-0.11204],[-75.38795,-0.08651],[-75.51561,-0.00886],[-75.55721,-0.01051],[-75.62166,0.05491],[-75.80258,0.06641],[-75.93493,0.24452],[-75.98139,0.25625],[-75.99336,0.30811],[-76.05226,0.34941],[-76.106,0.32759],[-76.12313,0.38766],[-76.21817,0.39078],[-76.26157,0.4489],[-76.30557,0.43613],[-76.33156,0.38958],[-76.39687,0.38958],[-76.40214,0.2478],[-76.52946,0.26693],[-76.58263,0.22733],[-76.62038,0.26939],[-76.72246,0.29262],[-76.75085,0.2586],[-76.79544,0.27197],[-76.84143,0.24663],[-76.99419,0.29497],[-77.03221,0.2769],[-77.08735,0.29028],[-77.11199,0.36983],[-77.16855,0.39001],[-77.28494,0.3649],[-77.35628,0.4008],[-77.52161,0.41841],[-77.52054,0.53174],[-77.47901,0.60824],[-77.48511,0.65987],[-77.51936,0.66276],[-77.56605,0.64078],[-77.67949,0.65013],[-77.66961,0.58044],[-77.80844,0.43261],[-77.8026,0.37629],[-77.81001,0.37347]]]}},{"type":"Feature","properties":{"name":"Santa Elena","code":"EC-SE*","source":"ECU"},"geometry":{"type":"Polygon","coordinates":[[[-80.5613,-2.50809],[-80.47736,-2.49808],[-80.43536,-2.39426],[-80.33912,-2.35013],[-80.28469,-2.36199],[-80.23861,-2.31416],[-80.25863,-2.26478],[-80.22694,-2.2292],[-80.24172,-2.11177],[-80.3012,-2.08404],[-80.36498,-1.99123],[-80.51747,-1.91624],[-80.57974,-1.80627],[-80.58992,-1.68055],[-80.75498,-1.67705],[-80.81015,-1.69405],[-80.72554,-1.92047],[-80.76142,-1.98404],[-80.73733,-2.03427],[-80.74997,-2.1004],[-80.90547,-2.21574],[-81.00835,-2.18928],[-80.89328,-2.32951],[-80.67355,-2.40935],[-80.5817,-2.49131],[-80.5613,-2.50809]]]}},{"type":"Feature","properties":{"name":"Santo Domingo de los Tsáchilas","code":"EC-SD*","source":"ECU"},"geometry":{"type":"Polygon","coordinates":[[[-79.57468,0.12654],[-79.62588,0.05286],[-79.61453,-0.04297],[-79.51196,-0.16404],[-79.41078,-0.18995],[-79.40207,-0.39017],[-79.46123,-0.46357],[-79.47688,-0.53484],[-79.34647,-0.54425],[-79.36509,-0.57898],[-79.34861,-0.68796],[-79.28874,-0.6907],[-79.12188,-0.53977],[-79.03664,-0.58431],[-78.99948,-0.51977],[-79.03077,-0.4663],[-78.94087,-0.35987],[-78.95486,-0.31243],[-78.83374,-0.34257],[-78.74735,-0.26581],[-78.74796,-0.23877],[-78.83119,-0.18956],[-78.84696,-0.12987],[-78.90276,-0.14134],[-78.96109,-0.10343],[-79.02524,-0.11937],[-79.14196,-0.08718],[-79.1137,-0.03372],[-79.13004,-0.01691],[-79.3019,0.00447],[-79.37423,0.03111],[-79.36273,0.08158],[-79.4221,0.07536],[-79.4602,0.10492],[-79.50224,0.08732],[-79.56873,0.12629],[-79.57468,0.12654]]]}},{"type":"Feature","properties":{"name":"Pichincha","code":"EC-P","source":"ECU"},"geometry":{"type":"Polygon","coordinates":[[[-79.36273,0.08158],[-79.36917,0.02683],[-79.11492,-0.02491],[-79.14196,-0.08718],[-79.02524,-0.11937],[-78.96109,-0.10343],[-78.90276,-0.14134],[-78.84696,-0.12987],[-78.83119,-0.18956],[-78.74796,-0.23877],[-78.74735,-0.26581],[-78.83374,-0.34257],[-78.95642,-0.32021],[-78.91579,-0.34665],[-78.82869,-0.52104],[-78.7412,-0.5539],[-78.73906,-0.62855],[-78.71009,-0.65111],[-78.64263,-0.63458],[-78.61522,-0.5955],[-78.56603,-0.61339],[-78.4974,-0.59317],[-78.50051,-0.63478],[-78.41185,-0.71138],[-78.33136,-0.65383],[-78.26221,-0.52432],[-78.18069,-0.19189],[-78.14278,-0.16351],[-78.10409,-0.19384],[-78.06734,-0.18003],[-78.04285,-0.1394],[-77.93471,-0.09494],[-77.94131,-0.0494],[-77.84363,0.00908],[-77.856,0.0655],[-77.96655,0.12056],[-77.95979,0.16925],[-78.02257,0.19063],[-78.17663,0.12682],[-78.29731,0.14872],[-78.33415,0.19704],[-78.3742,0.16527],[-78.35872,0.20745],[-78.40758,0.25845],[-78.64325,0.21274],[-78.85018,0.24623],[-78.94587,0.2124],[-79.00431,0.22521],[-79.03438,0.29186],[-79.14244,0.32589],[-79.27487,0.32148],[-79.36195,0.2435],[-79.31322,0.18342],[-79.35807,0.08303],[-79.36273,0.08158]]]}},{"type":"Feature","properties":{"name":"Manabi","code":"EC-M","source":"ECU"},"geometry":{"type":"MultiPolygon","coordinates":[[[[-80.86177,-1.60041],[-80.86114,-1.59509],[-80.86254,-1.5904],[-80.86177,-1.60041]]],[[[-81.04991,-1.28881],[-81.07375,-1.26103],[-81.07593,-1.28717],[-81.04991,-1.28881]]],[[[-79.96241,0.22094],[-79.96702,0.2529],[-79.97027,0.21889],[-79.96241,0.22094]]],[[[-79.94674,0.26486],[-79.94332,0.21867],[-79.9799,0.18529],[-80.03517,0.36685],[-80.03276,0.17755],[-80.06667,0.06354],[-80.13582,-0.03791],[-80.27818,-0.16985],[-80.3303,-0.17908],[-80.40579,-0.30454],[-80.49131,-0.37337],[-80.40224,-0.62711],[-80.31133,-0.63925],[-80.3098,-0.66078],[-80.39165,-0.66498],[-80.45094,-0.61173],[-80.57499,-0.91658],[-80.63002,-0.94921],[-80.66094,-0.93025],[-80.82789,-0.96254],[-80.91059,-1.06148],[-80.84683,-1.21375],[-80.73921,-1.35931],[-80.76655,-1.46919],[-80.84068,-1.57045],[-80.84466,-1.63283],[-80.81015,-1.69405],[-80.58992,-1.68055],[-80.54845,-1.86824],[-80.44458,-1.954],[-80.42238,-1.78986],[-80.32201,-1.69494],[-80.20925,-1.68891],[-80.23103,-1.61464],[-80.25941,-1.6197],[-80.28741,-1.56857],[-80.21399,-1.57783],[-80.18695,-1.55504],[-80.21004,-1.48457],[-80.15264,-1.39745],[-80.1425,-1.32374],[-80.09503,-1.32802],[-80.03507,-1.2786],[-79.99163,-1.18656],[-80.00195,-1.14069],[-79.93786,-1.15497],[-79.84915,-1.08965],[-79.73005,-0.88855],[-79.65458,-0.90327],[-79.61614,-0.86482],[-79.59914,-0.7479],[-79.58015,-0.71534],[-79.53462,-0.71099],[-79.54298,-0.66569],[-79.49009,-0.60209],[-79.46427,-0.46964],[-79.40207,-0.39017],[-79.41078,-0.18995],[-79.51196,-0.16404],[-79.61005,-0.05249],[-79.62588,0.05286],[-79.57468,0.12654],[-79.7081,0.18289],[-79.67516,0.257],[-79.73036,0.28126],[-79.72118,0.31879],[-79.7906,0.29796],[-79.83198,0.32894],[-79.89046,0.32413],[-79.94118,0.26486],[-79.94674,0.26486]]],[[[-80.00212,0.36898],[-79.99633,0.39096],[-80.03624,0.4054],[-80.00726,0.3669],[-80.00212,0.36898]]]]}},{"type":"Feature","properties":{"name":"Azuay","code":"EC-A","source":"ECU"},"geometry":{"type":"Polygon","coordinates":[[[-79.09775,-3.62539],[-79.03985,-3.58377],[-79.06445,-3.51337],[-79.03558,-3.4768],[-79.05403,-3.42503],[-78.94531,-3.34368],[-78.92951,-3.27954],[-78.82422,-3.23357],[-78.76142,-3.13597],[-78.69279,-3.10914],[-78.62603,-2.91348],[-78.57116,-2.84063],[-78.60852,-2.77411],[-78.56408,-2.69969],[-78.43246,-2.6402],[-78.44102,-2.59529],[-78.49623,-2.57196],[-78.53764,-2.62232],[-78.56681,-2.56263],[-78.66745,-2.67842],[-78.7753,-2.67356],[-78.81624,-2.81868],[-78.905,-2.84118],[-79.03322,-2.68706],[-79.08124,-2.73197],[-79.2185,-2.71875],[-79.27167,-2.56815],[-79.35642,-2.56723],[-79.3845,-2.63243],[-79.43529,-2.6068],[-79.44289,-2.68892],[-79.49557,-2.62911],[-79.53544,-2.68987],[-79.50848,-2.86346],[-79.60092,-2.9153],[-79.60976,-2.98801],[-79.71403,-2.9839],[-79.76036,-3.07086],[-79.59297,-3.15607],[-79.65283,-3.323],[-79.51426,-3.31418],[-79.31696,-3.35503],[-79.28591,-3.47168],[-79.18082,-3.44639],[-79.13326,-3.59266],[-79.09775,-3.62496],[-79.09775,-3.62539]]]}},{"type":"Feature","properties":{"name":"Cañar","code":"EC-F","source":"ECU"},"geometry":{"type":"Polygon","coordinates":[[[-78.5684,-2.56433],[-78.66946,-2.4522],[-78.71719,-2.4223],[-78.77969,-2.43334],[-78.80477,-2.38046],[-78.90167,-2.40988],[-79.00829,-2.37555],[-79.13256,-2.2362],[-79.27206,-2.40394],[-79.41603,-2.34216],[-79.42069,-2.41157],[-79.52218,-2.49555],[-79.50021,-2.53074],[-79.39931,-2.49886],[-79.36277,-2.56545],[-79.26043,-2.57361],[-79.2416,-2.68237],[-79.20722,-2.72594],[-79.08124,-2.73197],[-79.02233,-2.69133],[-78.905,-2.84118],[-78.81624,-2.81868],[-78.7753,-2.67356],[-78.66745,-2.67842],[-78.57264,-2.56885],[-78.5684,-2.56433]]]}},{"type":"Feature","properties":{"name":"Guayas","code":"EC-G","source":"ECU"},"geometry":{"type":"MultiPolygon","coordinates":[[[[-80.43112,-3.1919],[-80.42845,-3.1628],[-80.44019,-3.19564],[-80.43112,-3.1919]]],[[[-80.09278,-2.93838],[-80.09791,-2.91138],[-80.10047,-2.94094],[-80.09278,-2.93838]]],[[[-80.06391,-2.92681],[-80.08546,-2.90177],[-80.06872,-2.92823],[-80.06391,-2.92681]]],[[[-80.11739,-2.88352],[-80.10184,-2.85072],[-80.13602,-2.86473],[-80.12628,-2.88387],[-80.11739,-2.88352]]],[[[-80.04306,-2.89087],[-80.03896,-2.86302],[-80.08749,-2.84542],[-80.10235,-2.88677],[-80.05297,-2.90916],[-80.04306,-2.89087]]],[[[-79.92789,-2.79179],[-79.899,-2.74538],[-80.03597,-2.67287],[-80.21376,-2.74494],[-80.25944,-2.8611],[-80.24896,-3.03031],[-80.12952,-3.02176],[-80.09577,-2.97484],[-80.15104,-2.87845],[-80.1409,-2.84428],[-80.02475,-2.85522],[-79.93629,-2.79473],[-79.92789,-2.79179]]],[[[-79.90239,-2.67561],[-79.90359,-2.66949],[-79.90665,-2.66719],[-79.90239,-2.67561]]],[[[-80.17361,-2.66497],[-80.17104,-2.66019],[-80.17258,-2.6566],[-80.17361,-2.66497]]],[[[-80.18318,-2.65353],[-80.18198,-2.64464],[-80.19035,-2.64362],[-80.18318,-2.65353]]],[[[-79.95293,-2.65898],[-79.94839,-2.61974],[-79.99085,-2.64563],[-79.97082,-2.65898],[-79.95293,-2.65898]]],[[[-79.99485,-2.62641],[-79.98604,-2.60292],[-80.00767,-2.63335],[-79.99485,-2.62641]]],[[[-79.73026,-2.61893],[-79.73053,-2.53697],[-79.77618,-2.54204],[-79.80101,-2.63042],[-79.73613,-2.62534],[-79.73026,-2.61893]]],[[[-79.93932,-2.57808],[-79.99031,-2.49959],[-80.0632,-2.57969],[-79.93932,-2.59117],[-79.93932,-2.57808]]],[[[-79.84501,-2.66634],[-79.82104,-2.55272],[-79.84051,-2.47719],[-79.88893,-2.6496],[-79.84792,-2.66754],[-79.84501,-2.66634]]],[[[-79.7917,-2.52559],[-79.82424,-2.41796],[-79.84051,-2.453],[-79.79838,-2.53477],[-79.7917,-2.52559]]],[[[-79.85988,-2.42831],[-79.86643,-2.27558],[-79.99862,-2.37707],[-80.03533,-2.49305],[-79.98986,-2.46802],[-79.94385,-2.49852],[-79.87924,-2.43978],[-79.88966,-2.49478],[-79.97723,-2.52389],[-79.93051,-2.59784],[-79.88565,-2.54524],[-79.86073,-2.44147],[-79.85988,-2.42831]]],[[[-79.94145,-2.30655],[-79.92303,-2.25235],[-79.95106,-2.2382],[-79.97402,-2.27558],[-79.95186,-2.31002],[-79.94145,-2.30655]]],[[[-79.83544,-2.2453],[-79.85253,-2.19336],[-79.87509,-2.226],[-79.84228,-2.25146],[-79.83544,-2.2453]]],[[[-79.76036,-3.07086],[-79.71403,-2.9839],[-79.60976,-2.98801],[-79.60092,-2.9153],[-79.50848,-2.86346],[-79.54019,-2.75537],[-79.49557,-2.62911],[-79.44289,-2.68892],[-79.43529,-2.6068],[-79.37691,-2.62769],[-79.35675,-2.56743],[-79.38881,-2.50469],[-79.45335,-2.50041],[-79.50021,-2.53074],[-79.52276,-2.50683],[-79.42069,-2.41157],[-79.41952,-2.34644],[-79.26435,-2.40021],[-79.13695,-2.2362],[-79.25038,-2.19965],[-79.13407,-2.20243],[-79.11876,-2.15143],[-79.12537,-2.12247],[-79.18078,-2.14346],[-79.25174,-2.09739],[-79.29257,-2.10225],[-79.36509,-1.97762],[-79.49204,-1.88644],[-79.66111,-1.91502],[-79.75042,-1.74247],[-79.82424,-1.70541],[-79.85774,-1.63324],[-79.8692,-1.43839],[-79.74032,-1.19256],[-79.61403,-1.07143],[-79.53505,-1.05168],[-79.50973,-0.85447],[-79.5422,-0.83425],[-79.65458,-0.90327],[-79.73005,-0.88855],[-79.84915,-1.08965],[-79.93786,-1.15497],[-80.00195,-1.14069],[-79.99163,-1.18656],[-80.03507,-1.2786],[-80.09503,-1.32802],[-80.1425,-1.32374],[-80.15264,-1.39745],[-80.21004,-1.48457],[-80.18695,-1.55504],[-80.21399,-1.57783],[-80.28741,-1.56857],[-80.25941,-1.6197],[-80.23103,-1.61464],[-80.20925,-1.68891],[-80.32571,-1.69708],[-80.42238,-1.78986],[-80.4397,-1.86004],[-80.43769,-1.96343],[-80.36498,-1.99123],[-80.3012,-2.08404],[-80.24172,-2.11177],[-80.22694,-2.2292],[-80.25863,-2.26478],[-80.23239,-2.30289],[-80.28469,-2.36199],[-80.33912,-2.35013],[-80.43536,-2.39426],[-80.47736,-2.49808],[-80.5613,-2.50809],[-80.43272,-2.6435],[-80.39267,-2.64083],[-80.28731,-2.73292],[-80.24851,-2.73668],[-80.2531,-2.6449],[-80.27896,-2.65241],[-80.25936,-2.63197],[-80.2919,-2.60235],[-80.23099,-2.63822],[-80.12915,-2.5602],[-80.0245,-2.33917],[-79.98784,-2.32886],[-79.9695,-2.23834],[-79.92424,-2.23662],[-79.91622,-2.28474],[-79.87956,-2.28073],[-79.86569,-2.09032],[-79.80116,-2.06319],[-79.80116,-2.09399],[-79.84699,-2.11232],[-79.82903,-2.38658],[-79.77439,-2.50722],[-79.70363,-2.50172],[-79.69373,-2.55818],[-79.72343,-2.63445],[-79.77869,-2.68289],[-79.85249,-2.92154],[-79.86044,-3.04821],[-79.76402,-3.0691],[-79.76036,-3.07086]]]]}},{"type":"Feature","properties":{"name":"Los Ríos","code":"EC-R","source":"ECU"},"geometry":{"type":"Polygon","coordinates":[[[-79.4686,-0.54761],[-79.54298,-0.66569],[-79.53462,-0.71099],[-79.58015,-0.71534],[-79.60127,-0.76097],[-79.60997,-0.85629],[-79.5422,-0.83425],[-79.50973,-0.85447],[-79.53505,-1.05168],[-79.61403,-1.07143],[-79.74032,-1.19256],[-79.8692,-1.43839],[-79.86658,-1.60039],[-79.82424,-1.70541],[-79.75042,-1.74247],[-79.66111,-1.91502],[-79.49204,-1.88644],[-79.36509,-1.97762],[-79.29257,-2.10225],[-79.19458,-2.13177],[-79.26263,-1.96343],[-79.22822,-1.84348],[-79.24222,-1.77348],[-79.19778,-1.74174],[-79.27993,-1.70038],[-79.26943,-1.6683],[-79.35264,-1.64109],[-79.25213,-1.56604],[-79.35107,-1.4629],[-79.27367,-1.3345],[-79.33418,-1.30027],[-79.39347,-1.31699],[-79.28716,-1.19841],[-79.29081,-1.15861],[-79.33637,-1.1258],[-79.29458,-1.00774],[-79.31661,-0.99828],[-79.30239,-0.91086],[-79.24685,-0.87241],[-79.14803,-0.72269],[-79.09052,-0.55669],[-79.12984,-0.54251],[-79.29931,-0.6953],[-79.35999,-0.67251],[-79.34647,-0.54425],[-79.46813,-0.54904],[-79.4686,-0.54761]]]}},{"type":"Feature","properties":{"name":"Cotopaxi","code":"EC-H","source":"ECU"},"geometry":{"type":"Polygon","coordinates":[[[-79.09229,-0.55268],[-79.14803,-0.72269],[-79.30856,-0.92795],[-79.31661,-0.99828],[-79.29458,-1.00774],[-79.33637,-1.1258],[-79.29081,-1.15861],[-79.28285,-1.20267],[-79.10321,-1.14959],[-78.98558,-1.21492],[-78.75286,-1.12977],[-78.66946,-1.15037],[-78.62474,-1.11188],[-78.5773,-1.12043],[-78.55533,-1.05628],[-78.49507,-1.09224],[-78.44957,-1.0625],[-78.40256,-0.97391],[-78.42534,-0.89615],[-78.39591,-0.85447],[-78.39253,-0.74638],[-78.50051,-0.63478],[-78.48826,-0.59998],[-78.56603,-0.61339],[-78.60549,-0.59298],[-78.66129,-0.6443],[-78.72117,-0.64741],[-78.73653,-0.56031],[-78.82869,-0.52104],[-78.93153,-0.33557],[-79.03077,-0.4663],[-78.99948,-0.51977],[-79.03279,-0.58145],[-79.09226,-0.55271],[-79.09229,-0.55268]]]}},{"type":"Feature","properties":{"name":"Bolívar","code":"EC-B","source":"ECU"},"geometry":{"type":"Polygon","coordinates":[[[-79.12588,-2.19271],[-79.07385,-2.16951],[-79.02233,-2.08475],[-79.0406,-2.05772],[-79.00814,-1.92921],[-79.01285,-1.77771],[-78.88617,-1.75341],[-78.84577,-1.65499],[-78.89946,-1.59715],[-78.87007,-1.49793],[-78.93903,-1.37065],[-78.87803,-1.1939],[-78.92473,-1.18148],[-78.99705,-1.21492],[-79.10321,-1.14959],[-79.32523,-1.21823],[-79.39347,-1.31699],[-79.33418,-1.30027],[-79.27367,-1.3345],[-79.35107,-1.4629],[-79.25213,-1.56604],[-79.35264,-1.64109],[-79.26943,-1.6683],[-79.27993,-1.70038],[-79.19778,-1.74174],[-79.24222,-1.77348],[-79.22822,-1.84348],[-79.26263,-1.96343],[-79.19458,-2.13177],[-79.11818,-2.12577],[-79.1246,-2.19001],[-79.12588,-2.19271]]]}},{"type":"Feature","properties":{"name":"Tungurahua","code":"EC-T","source":"ECU"},"geometry":{"type":"Polygon","coordinates":[[[-78.12174,-1.22041],[-78.22443,-1.14124],[-78.35197,-1.16632],[-78.32689,-1.04383],[-78.41057,-0.99401],[-78.48243,-1.08913],[-78.55533,-1.05628],[-78.5773,-1.06911],[-78.57108,-1.1181],[-78.62474,-1.11188],[-78.66946,-1.15037],[-78.75286,-1.12977],[-78.87803,-1.1939],[-78.93903,-1.37065],[-78.88301,-1.4676],[-78.77522,-1.43364],[-78.70193,-1.49333],[-78.61988,-1.50441],[-78.52578,-1.47583],[-78.4939,-1.43072],[-78.35528,-1.51782],[-78.29715,-1.4791],[-78.25006,-1.49793],[-78.16136,-1.43384],[-78.12139,-1.35451],[-78.11945,-1.26858],[-78.12174,-1.22041]]]}},{"type":"Feature","properties":{"name":"Chimborazo","code":"EC-H","source":"ECU"},"geometry":{"type":"Polygon","coordinates":[[[-78.57089,-2.55386],[-78.51276,-2.53716],[-78.46824,-2.41993],[-78.58726,-2.32208],[-78.49066,-2.22203],[-78.51405,-2.13921],[-78.43962,-2.09486],[-78.44235,-2.01253],[-78.48974,-1.96423],[-78.40195,-1.85427],[-78.4626,-1.74102],[-78.36714,-1.63661],[-78.37992,-1.55049],[-78.35957,-1.51643],[-78.4939,-1.43072],[-78.52578,-1.47583],[-78.61988,-1.50441],[-78.70193,-1.49333],[-78.79914,-1.43559],[-78.88301,-1.4676],[-78.9014,-1.58743],[-78.84577,-1.65499],[-78.87919,-1.74582],[-79.01285,-1.77771],[-79.03244,-2.11955],[-79.09718,-2.18915],[-79.2461,-2.19596],[-79.24902,-2.21812],[-79.14034,-2.21637],[-79.00191,-2.37828],[-78.90167,-2.40988],[-78.80477,-2.38046],[-78.77969,-2.43334],[-78.71719,-2.4223],[-78.57186,-2.5498],[-78.57089,-2.55386]]]}},{"type":"Feature","properties":{"name":"Morona Santiago","code":"EC-S","source":"ECU"},"geometry":{"type":"Polygon","coordinates":[[[-78.17507,-1.44544],[-78.25006,-1.49793],[-78.29715,-1.4791],[-78.37618,-1.53805],[-78.36714,-1.63661],[-78.4626,-1.74102],[-78.40377,-1.87462],[-78.48974,-1.96423],[-78.44235,-2.01253],[-78.43962,-2.09486],[-78.51405,-2.13921],[-78.49066,-2.22203],[-78.58726,-2.32208],[-78.46824,-2.41993],[-78.51276,-2.53716],[-78.57089,-2.55386],[-78.56292,-2.60073],[-78.52909,-2.6227],[-78.48554,-2.57235],[-78.42352,-2.62776],[-78.5808,-2.72302],[-78.60974,-2.78565],[-78.57116,-2.84063],[-78.62603,-2.91348],[-78.69279,-3.10914],[-78.75461,-3.12994],[-78.82422,-3.23357],[-78.86135,-3.23259],[-78.94208,-3.30306],[-78.8596,-3.5139],[-78.76268,-3.56836],[-78.68685,-3.58652],[-78.64093,-3.53686],[-78.37029,-3.52599],[-78.34373,-3.37772],[-78.25313,-3.40663],[-78.22453,-3.50086],[-78.20069,-3.50269],[-78.14427,-3.46263],[-78.19188,-3.3578],[-78.11469,-3.28467],[-78.08675,-3.21618],[-78.00306,-3.1804],[-77.95686,-3.08874],[-77.85017,-3.00001],[-76.69623,-2.61087],[-76.73772,-2.56243],[-76.80225,-2.57209],[-76.82747,-2.53959],[-76.9183,-2.5648],[-76.99211,-2.51498],[-77.1039,-2.32664],[-77.29255,-2.19511],[-77.41215,-2.14424],[-77.44423,-2.09797],[-77.71116,-2.02408],[-77.81809,-1.92353],[-77.88697,-1.69594],[-77.93064,-1.65797],[-78.02889,-1.66129],[-78.06307,-1.53503],[-78.15802,-1.45024],[-78.17507,-1.44544]]]}},{"type":"Feature","properties":{"name":"Napo","code":"EC-N","source":"ECU"},"geometry":{"type":"Polygon","coordinates":[[[-77.07005,-1.01177],[-77.04812,-0.99598],[-77.07152,-0.96328],[-77.03466,-0.91952],[-77.14488,-0.8918],[-77.20601,-0.81097],[-77.11262,-0.71633],[-77.131,-0.69025],[-77.26845,-0.83133],[-77.50381,-0.9442],[-77.59044,-0.92319],[-77.54529,-0.89104],[-77.51364,-0.81316],[-77.53801,-0.77811],[-77.49248,-0.70521],[-77.53074,-0.6212],[-77.61876,-0.54313],[-77.56048,-0.49621],[-77.55979,-0.45366],[-77.42681,-0.51947],[-77.35917,-0.42701],[-77.32407,-0.41768],[-77.32664,-0.36748],[-77.25199,-0.29713],[-77.29175,-0.18448],[-77.29578,-0.05263],[-77.37244,-0.14578],[-77.45067,-0.12976],[-77.45771,-0.0135],[-77.58433,-0.09603],[-77.69745,-0.07826],[-77.72752,-0.04785],[-77.76597,-0.07672],[-77.79009,-0.0146],[-77.77424,0.01961],[-77.8243,0.03921],[-77.94131,-0.0494],[-77.92961,-0.09058],[-77.96314,-0.11354],[-78.04285,-0.1394],[-78.07804,-0.1847],[-78.14278,-0.16351],[-78.18069,-0.19189],[-78.26221,-0.52432],[-78.33136,-0.65383],[-78.41349,-0.71095],[-78.39071,-0.81109],[-78.42534,-0.89615],[-78.41057,-0.99401],[-78.32689,-1.04383],[-78.35197,-1.16632],[-78.22443,-1.14124],[-78.06441,-1.24117],[-77.95101,-1.20628],[-77.89115,-1.24112],[-77.87683,-1.20029],[-77.83258,-1.21547],[-77.68979,-1.14364],[-77.55404,-1.15198],[-77.44246,-1.08187],[-77.35239,-1.09995],[-77.33474,-1.0678],[-77.21544,-1.02799],[-77.07986,-1.01294],[-77.07005,-1.01177]]]}},{"type":"Feature","properties":{"name":"Orellana","code":"EC-D*","source":"ECU"},"geometry":{"type":"Polygon","coordinates":[[[-75.57932,-1.55103],[-75.55595,-1.55205],[-75.38072,-0.93058],[-75.27842,-0.98375],[-75.18859,-0.96615],[-75.22525,-0.92838],[-75.21205,-0.87302],[-75.25676,-0.7826],[-75.24182,-0.63827],[-75.36786,-0.60634],[-75.38655,-0.56255],[-75.43779,-0.54185],[-75.541,-0.53792],[-75.56572,-0.48972],[-75.63974,-0.44849],[-75.6895,-0.46588],[-75.73652,-0.41382],[-75.82089,-0.43693],[-75.88207,-0.40258],[-75.94068,-0.41454],[-75.92376,-0.5603],[-76.03193,-0.51622],[-76.08285,-0.43368],[-76.2486,-0.44103],[-76.38205,-0.51622],[-76.5477,-0.4093],[-76.6246,-0.42425],[-76.93271,-0.05767],[-77.08863,-0.10493],[-77.1212,-0.0817],[-77.19329,-0.09291],[-77.28674,-0.04005],[-77.29175,-0.18448],[-77.25199,-0.29713],[-77.32664,-0.36748],[-77.32407,-0.41768],[-77.35917,-0.42701],[-77.42681,-0.51947],[-77.55979,-0.45366],[-77.56048,-0.49621],[-77.61876,-0.54313],[-77.53074,-0.6212],[-77.49248,-0.70521],[-77.53801,-0.77811],[-77.51728,-0.82257],[-77.58278,-0.93209],[-77.50381,-0.9442],[-77.26845,-0.83133],[-77.131,-0.69025],[-77.11262,-0.71633],[-77.20601,-0.81097],[-77.14488,-0.8918],[-77.03466,-0.91952],[-77.07152,-0.96328],[-77.04812,-0.99598],[-77.07478,-1.03185],[-77.03908,-1.09662],[-76.9135,-1.11787],[-76.87478,-1.06028],[-76.67545,-1.00131],[-76.60541,-1.07136],[-76.51322,-1.06113],[-76.52498,-1.1958],[-76.45401,-1.26378],[-76.39608,-1.26079],[-76.28941,-1.31273],[-76.10963,-1.27383],[-75.94054,-1.35677],[-75.88539,-1.33838],[-75.59999,-1.50559],[-75.58823,-1.54499],[-75.57932,-1.55103]]]}},{"type":"Feature","properties":{"name":"Galápagos","code":"EC-W","source":"ECU"},"geometry":{"type":"MultiPolygon","coordinates":[[[[-89.63618,-1.39268],[-89.66127,-1.3546],[-89.71708,-1.35806],[-89.64959,-1.39787],[-89.63618,-1.39268]]],[[[-90.42437,-1.23438],[-90.46895,-1.23604],[-90.48944,-1.30859],[-90.45261,-1.36341],[-90.39723,-1.3432],[-90.35653,-1.2845],[-90.4,-1.24047],[-90.42437,-1.23438]]],[[[-90.03508,-0.83024],[-90.02167,-0.81467],[-90.07185,-0.78049],[-90.05368,-0.83024],[-90.03508,-0.83024]]],[[[-89.4787,-0.92369],[-89.41337,-0.89168],[-89.25286,-0.68833],[-89.40082,-0.69655],[-89.61152,-0.88822],[-89.51071,-0.93234],[-89.4787,-0.92369]]],[[[-90.64813,-0.64031],[-90.63472,-0.61132],[-90.66414,-0.58666],[-90.68274,-0.62041],[-90.66068,-0.64291],[-90.64813,-0.64031]]],[[[-90.26784,-0.50662],[-90.48156,-0.52436],[-90.53262,-0.58017],[-90.52915,-0.69829],[-90.4036,-0.77087],[-90.25103,-0.74262],[-90.19483,-0.66232],[-90.18043,-0.58452],[-90.24794,-0.5196],[-90.26784,-0.50662]]],[[[-90.26441,-0.4767],[-90.27115,-0.41928],[-90.29667,-0.47563],[-90.27274,-0.48113],[-90.26441,-0.4767]]],[[[-90.70403,-0.41838],[-90.71981,-0.40149],[-90.70763,-0.42697],[-90.70403,-0.41838]]],[[[-91.42732,-0.28641],[-91.46756,-0.26564],[-91.65446,-0.30198],[-91.61812,-0.44043],[-91.56447,-0.48975],[-91.43727,-0.48413],[-91.37367,-0.39327],[-91.39833,-0.33443],[-91.42732,-0.28641]]],[[[-90.54386,-0.31842],[-90.59578,-0.23103],[-90.76927,-0.14407],[-90.83287,-0.18258],[-90.86047,-0.28464],[-90.8206,-0.34002],[-90.58746,-0.38239],[-90.55295,-0.33703],[-90.54386,-0.31842]]],[[[-91.25559,0.01065],[-91.34343,0.15742],[-91.46701,0.11446],[-91.52671,0.03726],[-91.59022,0.00608],[-91.57006,-0.02814],[-91.47766,-0.0019],[-91.42557,-0.01825],[-91.348,-0.31941],[-91.24419,-0.38596],[-91.20844,-0.48102],[-91.06927,-0.61715],[-91.14228,-0.6894],[-91.32062,-0.70423],[-91.50352,-0.86393],[-91.51036,-0.91831],[-91.41606,-1.00234],[-91.17536,-1.05672],[-90.90576,-0.97763],[-90.79929,-0.78104],[-90.87268,-0.65327],[-90.96242,-0.57836],[-90.93314,-0.5141],[-90.94531,-0.45668],[-91.1683,-0.25164],[-91.19818,-0.1791],[-91.19057,-0.07339],[-91.22213,-0.02966],[-91.25559,0.01065]]],[[[-89.94552,0.30891],[-89.95244,0.35001],[-89.96326,0.30891],[-89.94552,0.30891]]],[[[-90.46313,0.28464],[-90.41667,0.30804],[-90.42143,0.33919],[-90.45604,0.38289],[-90.50839,0.37683],[-90.52737,0.32452],[-90.47393,0.2816],[-90.46313,0.28464]]],[[[-90.74461,0.53345],[-90.71692,0.57758],[-90.76235,0.63296],[-90.7909,0.59272],[-90.75543,0.53345],[-90.74461,0.53345]]],[[[-91.81128,1.38082],[-91.81146,1.38472],[-91.81873,1.39447],[-91.81128,1.38082]]],[[[-91.9987,1.67476],[-91.99986,1.67999],[-92.00683,1.68173],[-91.9987,1.67476]]]]}}]}